Name,Address,City,State
A. Russell Knight Elementary School,140 Old Carriage Rd.,CHERRY HILL,NJ
A.E. Burling Elementary School,3600 HARRIS AVENUE,PENNSAUKEN,NJ
Abington Aveneu School,209 ABINGTON AVE,NEWARK,NJ
Abraham Lincoln Elementary School,325 MASON AVE,WYCKOFF,NJ
Abraham Lincoln School #6,111 PALISADE AVE,GARFIELD,NJ
Absegami High School,201 S  WRANGLEBORO ROAD,GALLOWAY,NJ
Academy I,209 BERGEN AVENUE,JERSEY CITY,NJ
Academy of Technology Design,525 Montgomery Street,Jersey City,NJ
Adlai E. Stevenson,15 KNOLL ROAD,FAIRFIELD,NJ
Adult Evening High School,2 Palisade Avenue,Jersey City,NJ
Adult High School and Post Secondary Programs,2000 85th Street,North Bergen,NJ
Adult Regional High School,1360 Tanyard Road,Sewell,NJ
Albert E Grice Middle School,901 WHITEHORSE HAMILTON SQ,HAMILTON,NJ
Albio Sires Elementary School,6300 PALISADE AVE,WEST NEW YORK,NJ
Alder Avenue Middle School,25 ALDER AVENUE,EGG HARBOR TOWNSHIP,NJ
Alexander D. Sullivan School,171 SEAVIEW AVE,JERSEY CITY,NJ
Alexander Denbo,ONE LEARNING WAY,BROWNS MILLS,NJ
Alexander Elementary School,20 ROBERT FROST DRIVE,HAMILTON,NJ
ALEXANDER HAMILTON SCHOOL,380 HARRISTOWN ROAD,GLEN ROCK,NJ
Alexandria Middle School,557 County Rd. 513,Pittstown,NJ
Alfred Cramer College Preparatory Lab School,2800 MICKLE STREET,CAMDEN,NJ
Alfred S. Faust,100 Uhland Street,East Rutherford,NJ
Alfred Zampella School,201 NORTH ST,JERSEY CITY,NJ
Alice Costello Elementary School,301 Haakon rd.,BROOKLAWN,NJ
Aline Bingham Elementary School,100 FIRST & ORCHARD AVE,RUNNEMEDE,NJ
Alpine Elementary School,500 HILLSIDE AVENUE,ALPINE,NJ
Alternative High School,MALBERG BUILDING,CHERRY HILL,NJ
Alternative School at Levitt,50 Martin Luther King Jr. Blvd,Willingboro,NJ
Althea Gibson Academy,490  WILLIAM STREET,EAST ORANGE,NJ
American History High School,74 Montgomery St,NEWARK,NJ
Ann A. Mullen Middle School,1400 SICKLERVILLE ROAD,SICKLERVILLE,NJ
Ann Blanche Smith,1000 HILLSDALE AVE,HILLSDALE,NJ
Ann Street School,30 ANN ST,NEWARK,NJ
Anna C. Scott Elementary School,100 Highland Street,Leonia,NJ
Anna L. Klein,301  69TH ST,GUTTENBERG,NJ
Anthony Rossi Elementary School,2572 PALERMO AVE,VINELAND,NJ
Applied Technology High School,400 Paramus Road,Paramus,NJ
Arthur Rann Elementary School,515 S EIGHTH AVE,GALLOWAY,NJ
Arts High School,550 M  L  KING BLVD,NEWARK,NJ
Ashbrook Elementary School,33 MUNICIPAL DRIVE,LUMBERTON,NJ
Atco Elementary,2162 COOPER ROAD,ATCO,NJ
Atlantic Avenue,21 East Atlantic Avenue,HADDON HEIGHTS,NJ
Atlantic City High School,1400 N Albany Avenue,Atlantic City,NJ
Atlantic County Alternative High School,4805 Nawakwa Blvd,Mays Landing,NJ
Atlantic County Elementary and Middle Schools,4805 NAWAKWA BOULEVARD,MAYS LANDING,NJ
Atlantic County High School,4805 NAWAKWA BOULEVARD,MAYS LANDING,NJ
Atlantic County Institute of Technology,5080 ATLANTIC AVENUE,MAYS LANDING,NJ
Atlantis Elementary School,3 SCHOOL ROAD,Joint Base MDL,NJ
Audubon Junior/Senior High School,350 EDGEWOOD AVENUE,AUDUBON,NJ
Augusta Preschool Academy,97 AUGUSTA STREET,IRVINGTON,NJ
Aura Elementary School,900 Clems Run,GLASSBORO,NJ
AUTISTIC,540 Farview Avenue,Paramus,NJ
Avalon Elementary School,235 32ND STREET,AVALON,NJ
Avon Elementary School,862 MERCER DR,HADDONFIELD,NJ
B. Bernice Young Elementary School,1203 NECK ROAD,BURLINGTON,NJ
B.R.I.C.K. Avon Academy,219 AVON AVE,NEWARK,NJ
B.R.I.C.K. Peshine Academy,433 Peshine Avenue,NEWARK,NJ
Baldwin Elementary School,41ST & SHARON TERRACE,PENNSAUKEN,NJ
Bankbridge Regional School,870 Bankbridge Road,Sewell,NJ
Barclay Early Childhood Center,1220 Winston Way,CHERRY HILL,NJ
Bard Early College High School,321 BERGEN STREET,NEWARK,NJ
Barley Sheaf Elementary School,80 BARLEY SHEAF ROAD,FLEMINGTON,NJ
Barringer Academy of S.T.E.A.M.,90 Parker Street,Newark,NJ
Barringer Arts High School,90 PARKER ST,NEWARK,NJ
BASS RIVER TOWNSHIP ELEMENTARY SCHOOL,11 NORTH MAPLE AVENUE,NEW GRETNA,NJ
Bayonne Academy,669 Avenue A,Bayonne,NJ
Bayonne Alternative High School,669 Avenue A,Bayonne,NJ
Bayonne High School,669 AVENUE A,BAYONNE,NJ
Bear Tavern Elementary School,1162 BEAR TAVERN ROAD,TITUSVILLE,NJ
Belhaven Middle School,51 BELHAVEN AVENUE,LINWOOD,NJ
Bell Oaks Upper Elementary School,256  ANDERSON AVENUE,BELLMAWR,NJ
Belleville High School,100 PASSAIC AVE,BELLEVILLE,NJ
Belleville Middle School,279 WASHINGTON AVE,BELLEVILLE,NJ
Belleville PS10,527 BELLEVILLE AVE,BELLEVILLE,NJ
Belleville PS3,230 JORALEMON ST,BELLEVILLE,NJ
Belleville PS4,30 MAGNOLIA ST,BELLEVILLE,NJ
Belleville PS5,149 ADELAIDE ST,BELLEVILLE,NJ
Belleville PS7,20 PASSAIC AVE,BELLEVILLE,NJ
Belleville PS8,183 UNION AVE,BELLEVILLE,NJ
Belleville PS9,301 RALPH ST,BELLEVILLE,NJ
Bellmawr Park Elementary School,29 PEACH ROAD,BELLMAWR,NJ
Bells Elementary School,227 GREENTREE RD,TURNERSVILLE,NJ
Belmont Runyon Elementary School,1 BELMONT RUNYON WAY,NEWARK,NJ
Ben Franklin Elementary,2939 PRINCETON PIKE,LAWRENCEVILLE,NJ
Benjamin Banneker Academy,500 South Clinton Street,EAST ORANGE,NJ
Benjamin Franklin Elementary School,7201 IRVING AVENUE,PENNSAUKEN,NJ
Benjamin Franklin Elementary School,42 PARK AVE,NEWARK,NJ
Benjamin Franklin Middle School,335 NORTH VAN DIEN AVE,RIDGEWOOD,NJ
Benjamin Franklin Middle School,1315 TAFT ROAD,TEANECK,NJ
Bergen Boulevard School,635 BERGEN BLVD,RIDGEFIELD,NJ
Bergen County Academies,200 Hackensack Avenue,Hackensack,NJ
Bergen County Technical High School - Paramus,E.285 Pascack Road,Paramus,NJ
Bergen County Technical High School - Paramus,E.285 Pascack Road,Paramus,NJ
Bergen County Technical High School - Teterboro,504 Route 46 West,Teterboro,NJ
Bergen County Technical Schools Adult & Continuing Education,200A Hackensack Avenue,Hackensack,NJ
Bergenfield High School,80 S PROSPECT AVE,BERGENFIELD,NJ
Berkeley Elementary,47 BERKELEY AVE,WESTWOOD,NJ
Berkeley Elementary School,351 Bloomfield Ave,Bloomfield,NJ
Berkeley Terrace Elementary School,787     GROVE STREET,IRVINGTON,NJ
Berkley Street School,812 BERKLEY STREET,NEW MILFORD,NJ
Berlin Community School,215 S FRANKLIN AVE,BERLIN,NJ
Bertrand F. Gibbs Elementary School,195 SUTTON PLACE,NEW MILFORD,NJ
Betsy Ross Elementary,20 MALCOLM RD,MAHWAH,NJ
Betty Maddalena Early Learning Center,747 Nothfield Avenue,West Orange,NJ
Beverly City School,601 BENTLEY AVE,BEVERLY,NJ
Billingsport Elementary School,441 NASSAU AVE,PAULSBORO,NJ
Birches Elementary School,416 WESTMINSTER BLVD,TURNERSVILLE,NJ
Blackwood Elementary School,260 BLENHEIM  ERIAL RD,BLACKWOOD,NJ
Bloomfield High School,160 Broad Street,Bloomfield,NJ
Bloomfield Middle School,60 Huck Road,Bloomfield,NJ
Bloomsbury Borough School,20 Main Street,Bloomsbury,NJ
Bobby's Run Elementary School,32 DIMSDALE DRIVE,LUMBERTON,NJ
Bogota Jr./Sr. High School,2 HENRY C  LUTHIN PLACE,BOGOTA,NJ
Bordentown Regional High School,318 WARD AVE,BORDENTOWN,NJ
Bordentown Regional Middle School,50 DUNNS MILL ROAD,BORDENTOWN,NJ
Bradford Elementary School,87 MT HEBRON RD,UPPER MONTCLAIR,NJ
Branch Brook School,228 RIDGE ST,NEWARK,NJ
Bret Harte Elementary School,1909 Queen Anne Dr.,CHERRY HILL,NJ
Bridgeton High School,111 N WEST AVENUE,BRIDGETON,NJ
Brigantine Elementary School,301 E  EVANS BOULEVARD,BRIGANTINE,NJ
Brigantine North Middle School,301 E  EVANS BOULEVARD,BRIGANTINE,NJ
Brighton Avenue School,30 N. Brighton Avenue,Atlantic City,NJ
Broad Street Elementary School,255 WEST BROAD ST,GIBBSTOWN,NJ
Broad Street School,251 WEST BROAD STREET,BRIDGETON,NJ
Brookdale Avenue School,14 BROOKDALE COURT,VERONA,NJ
Brookdale Elementary School,1230 Broad Street,Bloomfield,NJ
Brookside Elementary School,20 LAKE DRIVE,WESTWOOD,NJ
Brookside School,100 Brookside Avenue,Allendale,NJ
Bruce Street School For The Deaf,333 CLINTON PL,NEWARK,NJ
Buckshutem Road School,550 BUCKSHUTEM ROAD,BRIDGETON,NJ
Buena Regional High School,125 WEYMOUTH ROAD,BUENA,NJ
Buena Regional Middle School,175 WEYMOUTH RD,BUENA,NJ
Bunker Hill Middle School,372 PITMAN  DOWNER RD,SEWELL,NJ
Burlington City High School,100 Blue Devil WAy,BURLINGTON,NJ
Burlington County Alternative High School,1020 Briggs Road,Mt. Laurel,NJ
Burlington County Institute of Technology - Evening,695 Woodlane Road,Westampton,NJ
Burlington County Institute of Technology - Medford,10 Hawkin Road,Medford,NJ
Burlington County Institute of Technology - Westampton,695 Woodlane Road,Westampton,NJ
Burlington Township High School,610 FOUNTAIN AVENUE,BURLINGTON,NJ
Burlington Township Middle School at Springside,1600 BURLINGTON BY  PASS,BURLINGTON,NJ
Burnet Hill Elementary School,25 BYRON PLACE,LIVINGSTON,NJ
Buzz Aldrin Middle School,173 BELLEVUE AVE,UPPER MONTCLAIR,NJ
Califon Elementary,6 SCHOOL STREET,CALIFON,NJ
Calvin Coolidge Elementary School,420 GRANDVIEW AVE,WYCKOFF,NJ
Camden Big Picture Learning Academy,1725 Park Boulevard,CAMDEN,NJ
Camden County Technical School-GTC,343 Berlin Cross Keys Road,Sicklerville,NJ
Camden County Technical School-Pennsauken,6008 Browning Road,Pennsauken,NJ
Camden High School,1875 Park Boulevard,CAMDEN,NJ
"Camden Prep, Inc.",1575 Mt. Ephraim Ave,Camden,NJ
Camden Street Elementary School,281 CAMDEN ST,NEWARK,NJ
Cape May City Elementary School,921 LAFAYETTE ST,CAPE MAY,NJ
Cape May County High School,148 CREST HAVEN ROAD,CAPE MAY COURT HOUSE,NJ
Cape May County Technical Evening School,188 CREST HAVEN ROAD,CAPE MAY COURT HOUSE,NJ
Cape May County Technical Evening Vo-Tech School,188 CREST HAVEN ROAD,CAPE MAY COURT HOUSE,NJ
Cape May County Technical High SChool,188 CREST HAVEN RD,CAPE MAY COURT HOUSE,NJ
Captain James Lawrence Elementary School,315 BARCLAY ST,BURLINGTON,NJ
Career and Innovation Academy of Orange,123 Cleveland Street,Orange,NJ
Carl T. Mitnick School,905 SEASHORE ROAD,CAPE MAY,NJ
Carlstadt Public School,550 WASHINGTON STREET,CARLSTADT,NJ
Caroline L. Reutter School,2150 DELSEA DR,FRANKLINVILLE,NJ
Carteret Elementary School,158 Grove Street,Bloomfield,NJ
Casimer M. Dallago Jr. Impact Center,240 S. Sixth Street,VINELAND,NJ
Catherine E. Doyle Elementary School,250 WOOD  RIDGE AVE,WOOD  RIDGE,NJ
Cedar Creek High School,1701 New York Ave.,EGG HARBOR CITY,NJ
Cedar Grove High School,90 Rugby Road,Cedar Grove,NJ
Center Square School,100 Peachwood Drive,Logan Township,NJ
Central Early Childhood Center,1040 Monmouth Road,DEPTFORD,NJ
Central High School,250 18TH AVENUE,NEWARK,NJ
CENTRAL SCHOOL,600 S MAPLE AVE,GLEN ROCK,NJ
Central School,THREE LINCOLN AVENUE,HADDONFIELD,NJ
Centre City Elementary School,301 COLUMBUS DR,MANTUA,NJ
Chairville Elementary School,36 CHAIRVILLE ROAD,MEDFORD,NJ
Chancellor Avenue Elementary School,844     CHANCELLOR AVENUE,IRVINGTON,NJ
Chancellor Avenue School,321 CHANCELLOR AVE,NEWARK,NJ
Chaplain Charles Watters School,220 VIRGINIA AVE,JERSEY CITY,NJ
Charles DeWolf Middle School,275 OLD TAPPAN RD,OLD TAPPAN,NJ
Charles E. Trefurt School,96 FRANKLIN ST,JERSEY CITY,NJ
Charles F. Seabrook School,1373 Highway 77,SEABROOK,NJ
Charles H. Bullock School,55 Washington Street,MONTCLAIR,NJ
Charles L. Spragg School,601 BUFFALO AVE,EGG HARBOR CITY,NJ
Charles R Smith Early Chilhood Center,271 SECOND STREET,PALISADES PARK,NJ
Charles Street School,100 W  CHARLES STREET,PALMYRA,NJ
Charles W. Lewis Middle School,875 ERIAL ROAD,BLACKWOOD,NJ
Chatsworth Elementary School,2 John Bowker Jr. Blvd,CHATSWORTH,NJ
Chelsea Heights School,4101  Filbert Avenue,Atlantic City,NJ
Cherokee High School,120 TOMLINSON MILL ROAD,MARLTON,NJ
Cherry Hill High School East,1750 Kresson Rd.,CHERRY HILL,NJ
Cherry Hill High School West,2101 Chapel Ave.,CHERRY HILL,NJ
Cherry Hill School,410 BOGERT RD,RIVER EDGE,NJ
Cherry Street School,11 CHERRY STREET,BRIDGETON,NJ
Chesterfield Township Elementary School,30 Saddle Way,Chesterfield,NJ
Chestnut Ridge Middle School,641 HURFFVILLE  CROSSKEYS RD,SEWELL,NJ
Chews Elementary School,600 CHEWSLANDING SOMERDALE RD,BLACKWOOD,NJ
Child Family Center,1100 COOMBS RD.,MILLVILLE,NJ
Christa McAuliffe School,167 HANCOCK AVE,JERSEY CITY,NJ
Christopher Columbus School #8,147 CEDAR STREET,GARFIELD,NJ
Churchill,233 FAIRFIELD ROAD,FAIRFIELD,NJ
Cicely L. Tyson Community Elementary School,45 North Arlington Street,EAST ORANGE,NJ
Cicely L. Tyson Community Middle/High School,35 Winans Street,EAST ORANGE,NJ
Cinnaminson High School,1197 RIVERTON ROAD,CINNAMINSON,NJ
Cinnaminson Middle School,312 N  FORKLANDING ROAD,CINNAMINSON,NJ
Clara Barton Elementary,100 CROSSWICKS ST,BORDENTOWN,NJ
Clara Barton Elementary School,223 Rhode Island Ave.,CHERRY HILL,NJ
CLARA E COLEMAN SCHOOL,100 PINELYNN RD,GLEN ROCK,NJ
Clarence B. Lamb Elementary School,46 SCHOOLHOUSE ROAD,WRIGHTSTOWN,NJ
Clarendon School,685 FIFTH ST,SECAUCUS,NJ
Clayton High School,55 POP KRAMER BLVD,CLAYTON,NJ
Clayton J. Davenport Elementary School,2499 SPRUCE AVENUE,EGG HARBOR TOWNSHIP,NJ
Clayton Middle School,55 POP KRAMER BLVD,CLAYTON,NJ
Clearview Regional High School,625 BREAKNECK RD,MULLICA HILL,NJ
Clearview Regional Middle School,595 JEFFERSON RD,MULLICA HILL,NJ
Clementon Elementary School,4 AUDUBON AVE,CLEMENTON,NJ
Cleveland  Eighteenth Avenue School,388 BERGEN ST,NEWARK,NJ
Cleveland Street Elementary SCchool,355 CLEVELAND ST,ORANGE,NJ
Cliffside Park High School,64 Riverview Avenue,CLIFFSIDE PARK,NJ
Clinton Elementary School,27 BERKSHIRE RD,MAPLEWOOD,NJ
Clinton Public School,10 SCHOOL STREET,CLINTON,NJ
Clinton Township Middle School,34 GRAYROCK ROAD,CLINTON,NJ
Clyde S. Jennings Elementary School,100 CEDAR AVENUE,OAKLYN,NJ
Cold Springs School,1194 MARKET STREET,GLOUCESTER CITY,NJ
Colin Powell Elementary School,1500 New York Avenue,Union City,NJ
Collings Lakes Elementary School,620 CAINS MILL RD  & LAKE GEOR,WILLIAMSTOWN,NJ
Collingswood High School,424 COLLINGS AVE,COLLINGSWOOD,NJ
Collingswood Middle School,414 COLLINGS AVE,COLLINGSWOOD,NJ
Collins Elementary School,67 MARTIN RD,LIVINGSTON,NJ
Colonial Road School,749 Colonial Road,Franklin Lakes,NJ
Columbia High School,17 PARKER AVE,MAPLEWOOD,NJ
Columbus Elementary School,1200 BRUNSWICK AVENUE,TRENTON,NJ
Columbus School,370 WESTERVELT PLACE,LODI,NJ
Columbus School,640 LAKE AVE,LYNDHURST,NJ
Community Middle School,95 GROVERS MILL ROAD,PLAINSBORO,NJ
Community Park School,372 WITHERSPOON STREET,PRINCETON,NJ
Cooper's Poynt Family School,201 State Street,CAMDEN,NJ
Copper Hill Elementary School,100 Everitts Road,Ringoes,NJ
Cornelia F. Bradford School,96 SUSSEX ST,JERSEY CITY,NJ
Countryside Elementary School,115 SCHOOLHOUSE LANE,MOUNT LAUREL,NJ
County Prep High School,525 MONTGOMERY STREET,JERSEY CITY,NJ
County Road School,130 COUNTY RD,DEMAREST,NJ
Cranberry Pines Elementary,400 FAIRVIEW ROAD,MEDFORD,NJ
Creative Arts Morgan Village Academy,990 Morgan Boulevard,CAMDEN,NJ
Crescent Elementary School,165 CRESCENT AVENUE,WALDWICK,NJ
Cresskill High School,1 LINCOLN DR,CRESSKILL,NJ
Cresskill Middle School,1 LINCOLN DR,CRESSKILL,NJ
Crest Memorial School,9100 PACIFIC AVE,WILDWOOD CREST,NJ
Cumberland Regional High School,90 SILVER LAKE ROAD,BRIDGETON,NJ
Dane Barse Elementary School,240 S ORCHARD RD,VINELAND,NJ
Daniel Webster School,2700  PALISADE AVE,WEEHAWKEN,NJ
David C. Douglass Memorial School,2600 BAYSHORE RD,VILLAS,NJ
David E. Owens Middle School,470 MARION AVENUE,NEW MILFORD,NJ
Dawes Avenue Elementary School,22 W. Dawes Avenue,Somers Point,NJ
Daylight/Twilight High School,501 Edgewood Avenue,TRENTON,NJ
Decatur Avenue Early Childhood Center,115 WEST DECATUR AVE,PLEASANTVILLE,NJ
Deerfield School,26 TROY LANE,SHORT HILLS,NJ
Deerfield Township School District,419  MORTON AVE,ROSENHAYN,NJ
Delair Elementary School,850 DEROUSSE AVENUE,DELAIR,NJ
Delaware Township School,501 ROSEMONT  RINGOES ROAD,SERGEANTSVILLE,NJ
Delaware Valley Regional High School,19 Senator Stout Rd,Frenchtown,NJ
Delran High School,50 HARTFORD ROAD,DELRAN,NJ
Delran Intermediate School,20 CREEK ROAD,DELRAN,NJ
Delran Middle School,905 CHESTER AVENUE,DELRAN,NJ
Delsea Regional High School,242 FRIES MILL RD,FRANKLINVILLE,NJ
Delsea Regional Middle School,FRIES MILL RD,FRANKLINVILLE,NJ
Demarest Elementary School,465 Broughton Ave,Bloomfield,NJ
Demarest Middle School,568 PIERMONT RD,DEMAREST,NJ
Dennis Township Elementary/Middle Schools,165 ACADEMY ROAD,DENNISVILLE,NJ
Dennis Township Primary School,601 HAGAN ROAD,CAPE MAY COURT HOUSE,NJ
Deptford Township High School,575 S FOX RUN RD,DEPTFORD,NJ
Dionne Warwick Institute,120 CENTRAL AVE,EAST ORANGE,NJ
Discovery Elementary School,2 SCHOOL ROAD,Joint Base MDL,NJ
Dogwood Hill Elementary School,25 DOGWOOD DR,OAKLAND,NJ
Donald A. Quarles Early Childhood Center,186 Davison Place,ENGLEWOOD,NJ
Dorchester Elementary School,100 DORCHESTER ROAD,WOODCLIFF LAKE,NJ
Dorthy L. Bullock School,370 E  NEW ST,GLASSBORO,NJ
Downe Township Elementary School,220 MAIN ST,NEWPORT,NJ
Dr Martin Luther King Jr School Complex,1700 Marmora Avenue,Atlantic City,NJ
Dr Ronald McNair High School,123 COLES  STREET,JERSEY CITY,NJ
Dr William H Horton Elementary School,291 N 7TH ST,NEWARK,NJ
Dr. Albert M. Bean School,70 E THIRD AVE,PINE HILL,NJ
Dr. Charles E. Brimm Medical Arts High School,1626 COPEWOOD STREET,CAMDEN,NJ
Dr. Charles P. DeFuccio School,214 PLAINFIELD AVE,JERSEY CITY,NJ
Dr. E. Alma Flagg School,150 THIRD ST,NEWARK,NJ
Dr. Henry H. Davis Elementary School,3425 Cramer Street,CAMDEN,NJ
Dr. J.P. Cleary Elementary School,1501 CENTRAL AVE,MINOTOLA,NJ
Dr. John Grieco Elementary School,50 Durie Ave,Englewood,NJ
Dr. Joyanne D. Miller Elementary School,2 ALDER AVENUE,EGG HARBOR TOWNSHIP,NJ
Dr. Leroy McCloud Elementary School,325 TENAFLY RD,ENGLEWOOD,NJ
Dr. May Angelou Elementary School,239 Ocean Avenue,JERSEY CITY,NJ
Dr. Michael Conti School,182 MERSELES ST,JERSEY CITY,NJ
Dr. Paul Rafalides School,362 UNION ST,JERSEY CITY,NJ
Dr. Ulysses S. Wiggins College Preparatory Lab Schoo,400 Mount Vernon Street,CAMDEN,NJ
Dr. William Mennies Elementary School,361 EAST GRANT AVENUE,VINELAND,NJ
Dumont High School,101 NEW MILFORD AVE,DUMONT,NJ
Dunn Middle School,401 DAYTON STREET,TRENTON,NJ
Dutch Neck Elementary School,392 VILLAGE ROAD EAST,West Windsor,NJ
Dwight D Eisenhower Middle School,235 Grove Avenue,West Berlin,NJ
Dwight D. Eisenhower Middle School,344 CALVIN CT,WYCKOFF,NJ
Dwight Morrow High School/Academies@Englewood,274 KNICKERBOCKER RD,ENGLEWOOD,NJ
E. H. Slaybaugh Elementary School,11 SWIFT AVENUE,EGG HARBOR TOWNSHIP,NJ
E. Roy Bixby,25 FISCHER AVE,BOGOTA,NJ
Eagle Academy for Young Men of Newark,279 Chancellor Avenue,Newark,NJ
Early Childhood Development Center,1602 Pine Street,CAMDEN,NJ
Early Childhood School,5204 HUDSON AVE,WEST NEW YORK,NJ
Early Childhood School - Central,70 Montgomery Street,Newark,NJ
Early Childhood School - North,24 Crane Street,Newark,NJ
Early Childhood School - South,255 Chancellor Avenue,NEWARK,NJ
Early Childhood School - West,26 Speedway Avenue,Newark,NJ
East Amwell Township,43 WERTSVILLE RD,RINGOES,NJ
East Brook Elementary School,167 SIBBALD DR,PARK RIDGE,NJ
East Brook Middle School,190 SPRING VALLEY ROAD,PARAMUS,NJ
East Newark Public School,501  11 NORTH THIRD STREET,E NEWARK,NJ
East Orange Campus High School,344 PROSPECT STREET,EAST ORANGE,NJ
East Orange STEM Academy High School,129 RENSHAW AVENUE,EAST ORANGE,NJ
East Side High School,238 VAN BUREN ST,NEWARK,NJ
Eastampton Township Community School,1 STUDENT DRIVE,EASTAMPTON,NJ
Eastern Regional High School,1401 LAUREL OAK ROAD,VOORHEES,NJ
Ecole Toussaint Louverture,330 CENTRAL AVE,EAST ORANGE,NJ
Edgemont Elementary School,20 EDGEMONT RD,MONTCLAIR,NJ
Edison Middle School,75 WILLIAM ST,W ORANGE,NJ
Edith A. Bogert Elementary School,391 W  SADDLE RIVER RD,UPPER SADDLE RIVER,NJ
Edward H. Bryan,51 BROOKSIDE AVE,CRESSKILL,NJ
"Edward T. Bowser, Sr. School of Excellence",180 Lincoln Street,EAST ORANGE,NJ
Edward T. Hamilton,23 Northgate Drive,VOORHEES,NJ
Egg Harbor City Community School,730 Havana Avenue,EGG HARBOR CITY,NJ
Egg Harbor Township High School,24 HIGH SCHOOL DRIVE,EGG HARBOR TOWNSHIP,NJ
Eldridge Park School,55 LAWN PARK AVE,LAWRENCEVILLE,NJ
Eleanor Rush Intermediate School,1200 WYNWOOD DRIVE,CINNAMINSON,NJ
Eleanor Van Gelder,251 UNDERCLIFF AVE,EDGEWATER,NJ
Elizabeth F. Moore School,1361 Highway 77,SEABROOK,NJ
Elizabeth Haddon School,501 WEST REDMAN AVENUE,HADDONFIELD,NJ
Elliott Street Elementary School,721 Summer Avenue,NEWARK,NJ
Elwood Kindle Elementary School,211 Washington Avenue,Pitman,NJ
Emerson Jr Sr High,131 Main Street,Emerson,NJ
Emerson Middle School,318 - 18th Street,UNION CITY,NJ
Emil A. Cavallini Middle School,392 W  SADDLE RIVER RD,UPPER SADDLE RIVER,NJ
Emily C. Reynolds Middle School,2145 YARDVILLE HAMILTON SQ,HAMILTON,NJ
Emma C Attales,800 IRELAN AVENUE,ABSECON,NJ
EMOTIONALLY DISTURBED,540 Farview Avenue,Paramus,NJ
Erial Elementary School,20 ESSEX AVENUE,SICKLERVILLE,NJ
Eric S. Smith Middle School,2 MONROE STREET,RAMSEY,NJ
ESC Academy,37 Hoffmans Crossing Road,Califon,NJ
Essex Campus Academy,369 PASSAIC AVENUE,FAIRFIELD,NJ
"Essex County Donald M. Payne, Sr. School of Technology",498-544 West Market St,NEWARK,NJ
Essex County Newark Tech,91 WEST MARKET STREET,NEWARK,NJ
Essex County West Caldwell Tech,620 PASSAIC AVE,WEST CALDWELL,NJ
Essex Fells Elementary School,102 HAWTHORNE RD,ESSEX FELLS,NJ
Essex High School,520 Pompton Avenue,Cedar Grove,NJ
Essex Junior Academy,520 Pompton Avenue,Cedar Grove,NJ
Estell Manor Elementary School,128 CAPE MAY AVENUE,ESTELL MANOR,NJ
Ethel Hoppock Middle School,280 ASBURY  WEST PORTAL RD,ASBURY,NJ
Ethel M Burke Elementary School,112 SOUTH BLACK HORSE PIKE,BELLMAWR,NJ
Ethel McKnight Elementary School,58 TWIN RIVERS DR   SOUTH,EAST WINDSOR,NJ
Euclid Elementary School,1 BURTON AVENUE,HASBROUCK HEIGHTS,NJ
Eugene A. Tighe Middle School,7804 AMHERST AVENUE,MARGATE,NJ
Eugenio Maria de Hostos Center for Early Childhood Education,2200 KENNEDY BLVD,UNION CITY,NJ
Evergreen Avenue Elementary School,160 North Evergreen Avenue,Woodbury,NJ
Ewing High School,900 PARKWAY AVE,EWING,NJ
Explore 2000 Middle School,180-9th St,JERSEY CITY,NJ
Ezra L. Nolan School,88 GATES AVE,JERSEY CITY,NJ
F. W. Holbein Middle School,333 LEVIS DRIVE,MOUNT HOLLY,NJ
Fair Lawn High School,14  00 BERDAN AVENUE,FAIR LAWN,NJ
Fairfield Township School,375 GOULDTOWN  WOODRUFF ROAD,BRIDGETON,NJ
Fairmount,105 GRAND AVENUE,HACKENSACK,NJ
Fairview Elementary School,376 Berkeley Avenue,Bloomfield,NJ
Fanny Meyer Hillers,56 LONGVIEW AVENUE,HACKENSACK,NJ
Fernwood Avenue Middle School,4034 FERNWOOD AVENUE,EGG HARBOR TOWNSHIP,NJ
Fieldstone Middle School,47 Spring Valley Road,Montvale,NJ
First Avenue School,214 FIRST AVE,NEWARK,NJ
Fleetwood Elementary School,231 FLEETWOOD AVE,MOUNT LAUREL,NJ
Florence Avenue Elementary School,1324      SPRINGFIELD AVENUE,IRVINGTON,NJ
Florence L. Walther School,56 CHESTNUT STREET,LUMBERTON,NJ
Florence Riverfront School,500 Front Street,FLORENCE,NJ
Florence Township Memorial High School,1050 CEDAR LANE,BURLINGTON,NJ
Folsom Elementary School,1357 Mays Landing Road,Folsom,NJ
Forest Avenue School,287 FOREST AVE,GLEN RIDGE,NJ
Forest Avenue School,118 FOREST AVE,VERONA,NJ
Forest Hill School,1625 Wildwood Avenue,CAMDEN,NJ
Forest Street Elementary School,651 FOREST ST,ORANGE,NJ
Fort Dix Elementary School,1199 FORT DIX  JULIUSTOWN ROAD,FORT DIX,NJ
Fort Lee High School,3000 LEMOINE AVE,FORT LEE,NJ
Fountain Woods Elementary School,601 FOUNTAIN AVENUE,BURLINGTON,NJ
Fourteenth Avenue School,186  14TH AVE,NEWARK,NJ
Frances DeMasi Elementary School,199 EVESBORO  MEDFORD RD,MARLTON,NJ
Frances DeMasi Middle School,199 EVESBORO  MEDFORD RD,MARLTON,NJ
Francis A. Desmares Elementary School,16 OLD CLINTON ROAD,FLEMINGTON,NJ
Francis Lore Elementary School,13 WESTWOOD DRIVE,EWING,NJ
Frank R Conwell School,111 BRIGHT STREET,JERSEY CITY,NJ
Frank W. Gavlak Elementary School,106 KING ST,WALLINGTON,NJ
Franklin Avenue Middle School,755 Franklin Avenue,Franklin Lakes,NJ
Franklin Elementary School,2 N  FRANKLIN AVENUE,BERGENFIELD,NJ
Franklin Elementary School,85 Curtis Street,Bloomfield,NJ
Franklin Elementary School,100 DAVIS AVE,KEARNY,NJ
Franklin Elementary School,5211 Columbia Avenue,N BERGEN,NJ
Franklin Elementary School,200 WILLIAM STREET,TRENTON,NJ
Franklin L. Williams School,222 LAIDLAW AVENUE,JERSEY CITY,NJ
Franklin School,360 STUYVESANT AVE,LYNDHURST,NJ
FRANKLIN SCHOOL,95 CALDWELL AVENUE,SADDLE BROOK,NJ
Franklin Township School,226 QUAKERTOWN ROAD,QUAKERTOWN,NJ
Frederic N. Brown Elementary School,125 GROVE AVE,VERONA,NJ
Frenchtown Elementary,902 HARRISON ST,FRENCHTOWN,NJ
G.H. Carson Elementary School,4150 GARFIELD AVENUE,PENNSAUKEN,NJ
Galloway Township Middle School,100 S  REEDS ROAD,GALLOWAY,NJ
Gantner Avenue School,99 ROOSEVELT AVE,ELMWOOD PARK,NJ
Garfield Early Childhood Learning Center,241 RAY STREET,GARFIELD,NJ
Garfield Elementary School,360 BELGROVE DR,KEARNY,NJ
Garfield High School,500 PALISADE AVE,GARFIELD,NJ
Garfield Middle School,175 LANZA AVE,GARFIELD,NJ
Garfield Public Preschool 3 at Headstart,541 Midland Ave,Garfield,NJ
GARFIELD PUBLIC PRESCHOOL ANNEX,464 OUTWATER LANE,GARFIELD,NJ
Gateway Regional High School,775 TANYARD RD,WOODBURY HTS,NJ
GENERAL CHARLES G. HARKER SCHOOL,1771 OLDMANS CREEK ROAD,WOOLWICH TOWNSHIP,NJ
George,3800 GLADWYN AVE,PENNSAUKEN,NJ
George C. Baker Elementary School,139 W  MAPLE AVE,MOORESTOWN,NJ
George E. Wilson Elementary School,600 Park Avenue,HAMILTON,NJ
George G White,120 MAGNOLIA AVE,HILLSDALE,NJ
George L. Hess Educational Complex,700 BABCOCK ROAD,MAYS LANDING,NJ
George Washington Carver Elementary School,333 CLINTON PL,NEWARK,NJ
George Washington Carver Institute,135 GLENWOOD AVENUE,EAST ORANGE,NJ
George Washington Elementary School,270 WOODLAND AVE,WYCKOFF,NJ
George Washington Elementary School,3905 NEW YORK AVE,UNION CITY,NJ
George Washington Middle School,155 WASHINGTON PL,RIDGEWOOD,NJ
George Washington School,801 Undercliff Ave,Edgewater,NJ
George Washington School,39 FARDALE AVENUE,MAHWAH,NJ
Geraldine O Foster Early Childhood Center,550 BUCKSHUTEM ROAD,BRIDGETON,NJ
Gertrude C. Folwell Elementary School,455 JACKSONVILLE RD,MOUNT HOLLY,NJ
Gibbsboro Elementary School,37 KIRKWOOD RD,GIBBSBORO,NJ
Gilbert Avenue School,151 GILBERT AVENUE,ELMWOOD PARK,NJ
Gilmore J Fisher Middle School,1325 LOWER FERRY ROAD,EWING,NJ
Gladys Nunery School,123 CLAREMONT AVE,JERSEY CITY,NJ
Glassboro High School,560 JOSEPH L  BOWE BLVD,GLASSBORO,NJ
Glassboro Intermediate School,202 N DELSEA DR,GLASSBORO,NJ
Glen Landing Middle School,85 LITTLE GLOUCESTER ROAD,BLACKWOOD,NJ
Glen Ridge High School,200 RIDGEWOOD AVE,GLEN RIDGE,NJ
GLEN ROCK HIGH SCHOOL,400 HAMILTON AVENUE,GLEN ROCK,NJ
GLEN ROCK MIDDLE SCHOOL,600 HARRISTOWN ROAD,GLEN ROCK,NJ
Glen School,865 EAST GLEN AVENUE,RIDGEWOOD,NJ
Glendora Elementary School,201 STATION AVE,GLENDORA,NJ
Glenfield Middle School,25 MAPLE AVE,MONTCLAIR,NJ
Glenview Avenue,1700 Sycamore Street,HADDON HEIGHTS,NJ
Glenwood Avenue Elementary School,GLENWOOD & NEW YORK AVE,WILDWOOD,NJ
Glenwood School,325 TAYLOR ROAD  SOUTH,SHORT HILLS,NJ
Gloria M Sabater Elementary School,301 SOUTH EAST BLVD,VINELAND,NJ
Gloucester City Jr. Sr. High School,1300 MARKET STREET,GLOUCESTER CITY,NJ
Gloucester City Middle School,1300 Market Street,Gloucester City,NJ
Gloucester County Institute of Technology,1360 Tanyard Road,Sewell,NJ
Gloucester Township Elementary School,270 SOUTH BLACK HORSE PIKE,BLACKWOOD,NJ
Godwin Elementary School,41 E. Center Street,Midland Park,NJ
Good Intent Elementary School,1555 GOOD INTENT RD,DEPTFORD,NJ
Gordon Parks Academy,98 GREENWOOD AVE,EAST ORANGE,NJ
Gould/Mountain Elementary School,132 GOULD AVE,N CALDWELL,NJ
GOVERNOR CHARLES C STRATTON,15 FREDRICK BOULEVARD,WOOLWICH TWP,NJ
Grace N. Rogers Elementary School,380 STOCKTON ST,HIGHTSTOWN,NJ
Grade Downing Elementary School,3RD & CENTRAL AVES,RUNNEMEDE,NJ
Grandview Elementary School,35 HAMILTON DR EAST,N CALDWELL,NJ
Grant Elementary School,100 GRANT AVE,DUMONT,NJ
Grant Elementary School,104 HENRY ST,RIDGEFIELD PARK,NJ
Grant Elementary School,159 N  CLINTON AVENUE,TRENTON,NJ
Green-Fields Elementary School,15 HILL LANE,WOODBURY,NJ
Greenwood Elementary School,2069 GREENWOOD AVENUE,HAMILTON,NJ
Gregory Elementary School,301 GREGORY AVE,W ORANGE,NJ
Gregory Elementary School,500 RUTHERFORD AVENUE,TRENTON,NJ
Grenloch Terrace Early Childhood Center,251 WOODBURY  TURNERSVILLE RD,SEWELL,NJ
Grove Street Elementary School,602 GROVE STREET,IRVINGTON,NJ
Grover Cleveland Middle School,36 ACADEMY RD,CALDWELL,NJ
H Ashton Marsh,800 IRELAN AVE,ABSECON,NJ
H. Russel Swift Elementary School,5 SWIFT DRIVE,EGG HARBOR TOWNSHIP,NJ
Hackensack High School,FIRST & BEECH STREETS,HACKENSACK,NJ
Hackensack Middle School,360 Union Street,Hackensack,NJ
Haddon Heights Jr./Sr. High School,301 SECOND AVENUE,HADDON HEIGHTS,NJ
Haddon Township High School,406 MEMORIAL AVENUE,WESTMONT,NJ
Haddonfield Memorial High School,401 KINGS HIGHWAY EAST,HADDONFIELD,NJ
Haddonfield Middle School,FIVE LINCOLN AVENUE,HADDONFIELD,NJ
Haines Sixth Grade Center,162 STOKES ROAD,MEDFORD,NJ
Hainesport Township School,211 BROAD STREET,HAINESPORT,NJ
Haleyville-Mauricetown Elementary School,1308 NORTH AVENUE,PORT NORRIS,NJ
Hamilton East - Steinert,2900 KLOCKNER ROAD,HAMILTON,NJ
Hamilton Intermediate School,223 HAMILTON STREET,HARRISON,NJ
Hamilton North - Nottingham,1055 KLOCKNER ROAD,HAMILTON,NJ
Hamilton West-Watson,2720 SOUTH CLINTON AVENUE,HAMILTON,NJ
Hammonton Early Childhood Eductional Center,601C NORTH 4TH STREET,HAMMONTON,NJ
Hammonton High School,566 OLD FORKS ROAD,HAMMONTON,NJ
Hammonton Middle School,75 NORTH LIBERTY STREET,HAMMONTON,NJ
Hampton Borough School,32  41 SOUTH STREET,HAMPTON,NJ
Harker-Wylie School,125C TRENTON ROAD,BROWNS MILLS,NJ
Harriet Tubman Elementary School,504 S TENTH ST,NEWARK,NJ
Harrington Park School,191 HARRIOT AVE,HARRINGTON PARK,NJ
Harrison Elementary School,148 N LIVINGSTON AVE,LIVINGSTON,NJ
Harrison Elementary School,461 GENESSEE STREET,TRENTON,NJ
Harrison High School,401 Kingsland Avenue,HARRISON,NJ
Harrison School,104 Gray Street,West Caldwell,NJ
Harrison Township Elementary School,120 N MAIN STREET,MULLICA HILL,NJ
Harry C. Sharp Elementary School,928 North 32nd Street,CAMDEN,NJ
Harry L Bain,6200 BROADWAY,WEST NEW YORK,NJ
Hartford Upper Elementary School,397 HARTFORD ROAD,MOUNT LAUREL,NJ
Hartshorn School,400 HARTSHORN DRIVE,SHORT HILLS,NJ
Hasbrouck Heights High School,365 BOULEVARD,HASBROUCK HEIGHTS,NJ
Hasbrouck Heights Middle School,365 BOULEVARD,HASBROUCK HEIGHTS,NJ
Haviland Avenue School,240 SOUTH HAVILAND AVENUE,AUDUBON,NJ
Hawes Elementary School,531 STEVENS AVENUE,RIDGEWOOD,NJ
Hawkins Street School,8 HAWKINS ST,NEWARK,NJ
Haworth Public School,205 VALLEY RD,HAWORTH,NJ
Hawthorne Avenue School,428 HAWTHORNE AVE,NEWARK,NJ
Hawthorne Park Elementary School,84 Hampshire Lane,WILLINGBORO,NJ
Hazel Avenue Elementary School,45 HAZEL AVE,W ORANGE,NJ
HEARING IMPAIRED,540 Farview Avenue,Paramus,NJ
Hedgepeth Williams Middle School,301 GLADSTONE AVE,TRENTON,NJ
Heights Elementary School,114 SEMINOLE AVE,OAKLAND,NJ
Helen A. Fort Middle School,101 FORT DIX ROAD,PEMBERTON,NJ
HELEN I. SMITH SCHOOL,30 CAMBRIDGE AVENUE,SADDLE BROOK,NJ
Helen L Beeler,60 CALDWELL AVE,MARLTON,NJ
Henry B. Milnes Elementary School,8-01 PHILLIP ST,FAIR LAWN,NJ
Henry B. Whitehorne Middle School,600 BLOOMFIELD AVE,VERONA,NJ
Henry B. Wilson Family School,2250 South 8th Street,CAMDEN,NJ
Henry C. Beck Middle School,950 Cropwell Rd.,CHERRY HILL,NJ
Henry E. Harris Community School,135 AVENUE C,BAYONNE,NJ
Henry L. Bonsall Family School,1575 Mount Ephraim Avenue,Camden,NJ
Henry P. Becton Regional High School,120 PATERSON AVENUE,EAST RUTHERFORD,NJ
Henry Snyder High School,239 BERGEN AVE,JERSEY CITY,NJ
Heritage Middle School,20 FOXCROFT DR,LIVINGSTON,NJ
Herma S. Simmons Elementary School,300 WEST CHESTNUT STREET,CLAYTON,NJ
Heywood Avenue Elementary School,421 HEYWOOD AVE,ORANGE,NJ
High Bridge Elementary School,40 FAIRVIEW AVENUE,HIGH BRIDGE,NJ
High Bridge Middle School,50 THOMAS ST,HIGH BRIDGE,NJ
High Mountain Road School,765 High Mountain Road,Franklin Lakes,NJ
High Tech High School,1 High Tech Way,Secaucus,NJ
Highland Elementary School,31 HIGHLAND AVE,MIDLAND PARK,NJ
Highland Regional High School,450 Erial Road,BLACKWOOD,NJ
Hightstown High School,25 LESHIN LANE,HIGHTSTOWN,NJ
Hillside Elementary School,89 Hillsdale Avenue,Allendale,NJ
Hillside Elementary School,340 Homans Avenue,CLOSTER,NJ
Hillside Elementary School,1370 HAINESPORT MT LAUREL RD,MOUNT LAUREL,NJ
Hillside Elementary School,98 BELMONT DRIVE,LIVINGSTON,NJ
Hillside Elementary School,54 ORANGE RD,MONTCLAIR,NJ
Hilltop School,200 KIPP AVENUE,LODI,NJ
Ho-Ho-Kus Public School,70 LLOYD ROAD,HO  HO  KUS,NJ
Hoboken High School,NINTH & CLINTON STS,HOBOKEN,NJ
Hoboken Middle School,158 Fourth Street,HOBOKEN,NJ
Holdrum Middle School,393 RIVERVALE ROAD,RIVER VALE,NJ
Holland Brook School,52 READINGTON ROAD,WHITEHOUSE STATION,NJ
Holland Township Elementary School,714 MILFORD  WARREN GLEN ROAD,MILFORD,NJ
Holly Glen Elementary School,900 NORTH MAIN STREET,WILLIAMSTOWN,NJ
Holly Heights Elementary School,2509 E MAIN ST,MILLVILLE,NJ
Holly Hills Elementary School,500 OGDEN DRIVE,WESTAMPTON,NJ
Honiss Elementary\Middle School,31 DEPEW ST,DUMONT,NJ
Hoover Elementary School,273 MURRAY HILL TERRACE,BERGENFIELD,NJ
Hopewell Crest,122 SEWALL ROAD,BRIDGETON,NJ
Hopewell Elementary School,35 PRINCETON AVENUE,HOPEWELL,NJ
Hopewell Valley Central High School,259 PENNINGTON TITUSVILLE RD,PENNINGTON,NJ
Horace Mann Community School,25 WEST 38TH STREET,BAYONNE,NJ
Horace Mann Elementary School,150 Walt Whitman Blvd.,CHERRY HILL,NJ
Horace Mann Elementary School,1215  83RD STREET,NORTH BERGEN,NJ
Howard L. Emmons,14 SCRAPETOWN ROAD,PEMBERTON,NJ
Howard M. Phifer Middle School,8201 PARK AVE,PENNSAUKEN,NJ
Howard R. Yocum Elementary School,748 NORTH FORKLANDING ROAD,MAPLE SHADE,NJ
Huber Street School,1520 PATERSON PLANK RD,SECAUCUS,NJ
Hudson Elementary School,167  19TH ST,UNION CITY,NJ
Hunterdon Central Regional High School District,84  ROUTE 31,FLEMINGTON,NJ
Hunterdon County Academies,1445 State Route 31,Annandale,NJ
Hunterdon County Vocational School District Adult School,8 Bartles Corner Road,Flemington,NJ
Hunterdon County Vocational School District Central Campus,10 Junction Rd,FLEMINGTON,NJ
Hunterdon Polytech Bartles Corner Campus,8 Bartles Corner Road,Flemington,NJ
Hurffville Elementary School,200 HURFFVILLE  GRENLOCH RD,SEWELL,NJ
Indian Ave School,399 INDIAN AVENUE,BRIDGETON,NJ
Indian Hills High School,97 YAWPO AVE,OAKLAND,NJ
Indian Mills Elementary School,112 INDIAN MILLS ROAD,SHAMONG,NJ
Indian Mills Memorial School,295 INDIAN MILLS ROAD,SHAMONG,NJ
Infinity Institute,193 Old Bergen Road,Jersey City,NJ
Innovation High School,239 Bergen Avenue,Jersey City,NJ
Irvington High School,1253      CLINTON AVE,IRVINGTON,NJ
Isaiah Haines,125 B Trenton Rd.,Browns Mills,NJ
Ivy Hill Elementary School,107 IVY STREET,NEWARK,NJ
J Harold Van Zant,270 CONESTOGA DRIVE,MARLTON,NJ
J Spencer Smith School,101 DOWNEY DRIVE,TENAFLY,NJ
J. C. Stuart Early Childhood Development Center,70 SUNSET ROAD,Willingboro,NJ
J. Fithian Tatem School,ONE GLOVER AVENUE,HADDONFIELD,NJ
J. Garfield Jackson Sr. Academy,106 PROSPECT STREET,EAST ORANGE,NJ
J. Harvey Rodgers School,301 GEORGETOWN RD,GLASSBORO,NJ
J. Mason Tomlin Elementary School,393 MAIN ST,MANTUA,NJ
J.P. Case Middle School,301 CASE BOULEVARD,FLEMINGTON,NJ
J.V.B. Wicoff Elementary School,510 PLAINSBORO ROAD,PLAINSBORO,NJ
Jackson Avenue,421 JACKSON AVE,HACKENSACK,NJ
James A. Garfield Elementary School,480 HADDON AVE,COLLINGSWOOD,NJ
James Caldwell High School,265 WESTVILLE AVE,WEST CALDWELL,NJ
James F. Cooper Elementary School,1960 Greentree Rd.,CHERRY HILL,NJ
James F. Murray School,339 STEGMAN PARKWAY,JERSEY CITY,NJ
James J Ferris High School,35 COLGATE ST,JERSEY CITY,NJ
James Johnson Elementary School,500 Kresson Rd.,CHERRY HILL,NJ
James Madison School #10,55 Lincoln Place,GARFIELD,NJ
James Russell Lowell Elementary School,1025 LINCOLN PLACE,TEANECK,NJ
"James W. Lilley, Jr. Elementary School",1275 WILLIAMSTOWN ROAD,ERIAL,NJ
Janis E. Dismus Middle School,325 Tryon Avenue,ENGLEWOOD,NJ
Jefferson (Annex) Elementary School,6 Bond Street,WALLINGTON,NJ
Jefferson Elementary School,200 HICKORY AVENUE,BERGENFIELD,NJ
Jefferson Elementary School,100 Prospect Avenue,North Arlington,NJ
Jefferson Elementary School,85 PROSPECT ST,WEST CALDWELL,NJ
Jefferson Elementary School,518 RIDGEWOOD RD,MAPLEWOOD,NJ
Jefferson Elementary School,3400 PALISADE AVENUE,UNION CITY,NJ
Jefferson Elementary School,1 WHITTLESEY ROAD,TRENTON,NJ
Jefferson School,336 LAKE AVE.,LYNDHURST,NJ
Jeffrey Clark School,7 QUAKER RD,MICKLETON,NJ
Jessie F. George Elementary,1 PALM STREET,TOWNSHIP OF WASHINGTON,NJ
John A. Carusi Middle School,315 Roosevelt Dr.,CHERRY HILL,NJ
John A. Forrest Elementary School,10 - 00 HOPPER AVE,FAIR LAWN,NJ
John Brainerd Elementary School,100 WOLLNER DR,MOUNT HOLLY,NJ
John C. Milanesi Elementary School,880 HARDING HIGHWAY,BUENA,NJ
John F Kennedy Elementary School,228 Mt Vernon Avenue,West Berlin,NJ
John F Kennedy Elementary School,1210 ELEVENTH ST,N BERGEN,NJ
John F Kennedy School,311 S TENTH ST,NEWARK,NJ
John F. Scarpa Technical Education Center of Cumberland Coun,3400 College Drive,Vineland,NJ
John Greenleaf Whittier Elementary School,491 W ENGLEWOOD AVENUE,TEANECK,NJ
John H. Glenn School,1005 TURNERVILLE RD,PINE HILL,NJ
John H. Walker Middle School,325 FRANKLIN AVE,NUTLEY,NJ
John H. Winslow Elementary School,1335 MAGNOLIA RD,VINELAND,NJ
John Hydock Elementary School,19 LOCUST AVE,COLUMBUS,NJ
John L. Costley Middle School,116 HAMILTON ST,EAST ORANGE,NJ
John M. Bailey Community School,75 WEST 10TH STREET,BAYONNE,NJ
John Witherspoon Middle School,217 WALNUT LANE,PRINCETON,NJ
John Y Dater Elementary School,35 SCHOOL STREET,RAMSEY,NJ
Johnnie L. Cochran Jr. Academy,190 MIDLAND AVENUE,EAST ORANGE,NJ
Johnson Park School,285 ROSEDALE ROAD,PRINCETON,NJ
Johnstone Elementary School,165 S  BREWSTER RD,VINELAND,NJ
Jordan Road Elementary School,129 Jordan Road,Somers Point,NJ
Jose Marti Freshman Academy,1800 SUMMIT AVE,UNION CITY,NJ
Joseph C Shaner Memorial Elementary School,5801 THIRD STREET,MAYS LANDING,NJ
Joseph D. Sharp Elementary School,300 Old Orchard Rd.,CHERRY HILL,NJ
Joseph F Brandt School,215 NINTH STREET,HOBOKEN,NJ
Joseph F. Cappello School,1072 Old Trenton Road,Hamilton,NJ
Joseph H. Brensinger School,600 BERGEN AVE,JERSEY CITY,NJ
Joseph S. Stackhouse School,125A TRENTON ROAD,BROWNS MILLS,NJ
Jotham W. Wakeman School,100 ST PAULS AVE,JERSEY CITY,NJ
Joyce Kilmer Elementary School,2900 Chapel Ave.,CHERRY HILL,NJ
Joyce Kilmer Middle School,1300 STUYVESANT AVENUE,TRENTON,NJ
Joyce Kilmer School,80 RIDGE ROAD,MAHWAH,NJ
Julia A Traphagen School,153 SUMMIT AVENUE,WALDWICK,NJ
Julia A. Barnes School,91 ASTOR PLACE,JERSEY CITY,NJ
Kearny High School,336 DEVON ST,KEARNY,NJ
Kelly Elementary School,555 PLEASANT VALLEY WAY,W ORANGE,NJ
Kenneth R. Olson Middle School,132 NEW ROAD,TABERNACLE,NJ
Kingston Elementary School,320 Kingston Rd.,CHERRY HILL,NJ
Kingsway Regional High School,201 KINGS HIGHWAY,WOOLWICH TWP,NJ
Kingsway Regional Middle School,203 KINGS HIGHWAY,WOOLWICH TWP,NJ
Kingwood Township School,880 COUNTY ROAD 519,FRENCHTOWN,NJ
"KIPP: Cooper Norcross, A New Jersey Nonprofit Corporation",525 Clinton Street,Camden,NJ
Kirby's Mill Elementary School,151 HARTFORD ROAD,MEDFORD,NJ
Kisthardt Elementary School,215 HARCOURT DRIVE,HAMILTON,NJ
Klockner Elementary School,830 KLOCKNER AVENUE,HAMILTON,NJ
Knowledge Advanced Skills,1 High Tech Way,Secaucus,NJ
Kresson School,7 SCHOOL LANE,VOORHEES,NJ
Kuser Elementary School,70 NEWKIRK AVENUE,HAMILTON,NJ
Lafayette Street School,205 LAFAYETTE ST,NEWARK,NJ
Lake Tract Elementary School,690 ISZARD RD,DEPTFORD,NJ
Lakeside Middle School,2 N  SHARP ST,MILLVILLE,NJ
Lalor Elementary School,25 BARNT DEKLYN ROAD,HAMILTON,NJ
Lambertville Public School,200 N. Main,Lambertville,NJ
Langston Hughes Elementary School,160 Rhode Island Avenue,EAST ORANGE,NJ
Langtree Elementary School,2080 WHATLEY ROAD,HAMILTON,NJ
Laning Avenue School,18 LANNING RD,VERONA,NJ
Larchmont Elementary School,301 LARCHMONT BLVD,MOUNT LAUREL,NJ
Laurel Springs School,623 GRAND AVENUE,LAUREL SPRINGS,NJ
Lawnside School,426 EAST CHARLESTON AVE,LAWNSIDE,NJ
Lawrence High School,2525 PRINCETON PIKE,LAWRENCEVILLE,NJ
Lawrence Intermediate School,66 EGGERTS CROSSING ROAD,LAWRENCEVILLE,NJ
Lawrence Middle School,2455 PRINCETON PIKE,LAWRENCEVILLE,NJ
Lawrenceville Elementary School,40 CRAVEN LANE,LAWRENCEVILLE,NJ
Lebanon Borough School,6 MAPLE ST,LEBANON,NJ
Leeds Avenue Elementary School,100 W  LEEDS AVENUE,PLEASANTVILLE,NJ
Lenape High School,235 HARTFORD ROAD,MEDFORD,NJ
Lenape Meadows,160 RIDGE ROAD,MAHWAH,NJ
Leonia High School,100 Christie Heights Street,Leonia,NJ
Leonia Middle School,500 Broad Avenue,Leonia,NJ
Lester C Noecker,100 PASSAIC AVE,ROSELAND,NJ
Lester D. Wilson Elementary School,525 County Road 513,Pittstown,NJ
Levitt Intermediate School,"80 Martin Luther King, Jr. Pkwy",Willingboro,NJ
Lewis F. Cole Middle School,467 STILLWELL AVENUE,FORT LEE,NJ
Liberty High School,299 SIP AVENUE,JERSEY CITY,NJ
Liberty Middle School,1  KELLY  DRIVE,WEST ORANGE,NJ
LIFE SKILLS,540 Farview Avenue,Paramus,NJ
Lillian M. Steen,134 W. Main,BOGOTA,NJ
Lincoln,87 RICHELIEU TER,NEWARK,NJ
Lincoln Avenue Elementary School,216 LINCOLN AVE,ORANGE,NJ
Lincoln Avenue Middle School,3133 S Lincoln Ave,Vineland,NJ
Lincoln Community School #5,208 PROSPECT AVENUE,BAYONNE,NJ
Lincoln Elementary School,115 HIGHVIEW AVENUE,BERGENFIELD,NJ
Lincoln Elementary School,80 PROSPECT AVE,DUMONT,NJ
Lincoln Elementary School,BURTON & PATERSON AVES,HASBROUCK HEIGHTS,NJ
Lincoln Elementary School,712 LINCOLN AVENUE,RIDGEFIELD PARK,NJ
Lincoln Elementary School,18 CRANE ST,CALDWELL,NJ
Lincoln Elementary School,221 CROSS STREET,HARRISON,NJ
Lincoln Elementary School,1206 63RD ST,NORTH BERGEN,NJ
Lincoln High School,60 CRESCENT AVE,JERSEY CITY,NJ
Lincoln Middle School,121 BEECH ST,KEARNY,NJ
Lincoln School,140 ANDERSON  AVENUE,FAIRVIEW,NJ
Lincoln School,281 RIDGE RD,LYNDHURST,NJ
Lincoln School,414 MONTROSS AVENUE,RUTHERFORD,NJ
Lincoln School,301 HARRISON ST,NUTLEY,NJ
Lincoln School Annex,130 HAMILTON AVENUE,FAIRVIEW,NJ
Lindbergh Elementary School,401 GLEN AVE,PALISADES PARK,NJ
Linden Avenue School,205 LINDEN AVE,GLEN RIDGE,NJ
Lindenwold High School,801 Egg Harbor Road,Lindenwold,NJ
Lindenwold Middle School,40 WHITE HORSE AVENUE,LINDENWOLD,NJ
Lindenwold Preschool Building,100 South Avenue,Lindenwold,NJ
Lindenwold School Five,550 Chews Landing Rd.,LINDENWOLD,NJ
Lindenwold School Four,900 Gibbsboro Rd.,LINDENWOLD,NJ
Littlebrook School,39 MAGNOLIA LANE,PRINCETON,NJ
Livingston High School,30 ROBERT HARP DRIVE,LIVINGSTON,NJ
Lodi High School,99 PUTNAM STREET,LODI,NJ
Lodi MS HS,123 UNION ST,LODI,NJ
Logan Middle School,110 School Lane,Logan Township,NJ
Logan Township Elementary School,110 School Lane,Logan Township,NJ
Loring Flemming Elementary School,135 LITTLE GLOUCESTER RD,BLACKWOOD,NJ
Loudenslager Elementary School,100 BAIRD AVE,PAULSBORO,NJ
Louise A Spencer / Miller Street School,66 MUHAMMAD ALI AVENUE,NEWARK,NJ
Lower Cape May Regional High School,687 RT 9,CAPE MAY,NJ
Luis Munoz-Rivera MS,400 N  MONTGOMERY STREET,TRENTON,NJ
Lumberton Campus,71 ARK ROAD,LUMBERTON,NJ
Lumberton Middle School,30 DIMSDALE DRIVE,LUMBERTON,NJ
Luther Lee Emerson School,15 COLUMBUS ROAD,DEMAREST,NJ
Lyncrest Elementary School,9-04 MORLOT AVE,FAIR LAWN,NJ
Lyndhurst High School,400 Weart Avenue,LYNDHURST,NJ
M. Joan Pearson Elementary School,1301 BURLINGTON AVE,DELANCO,NJ
Mac Farland Intermediate,87 CROSSWICKS ST,BORDENTOWN,NJ
Madison at Chancellor South,36 MT. VERNON AVENUE,IRVINGTON,NJ
Magnolia,420 NORTH WARWICK RD,MAGNOLIA,NJ
Mahatma K. Gandhi School,143 ROMAINE AVE,JERSEY CITY,NJ
Mahwah High School,50 RIDGE ROAD,MAHWAH,NJ
Main Road School,1452 MAIN RD,NEWFIELD,NJ
Mainland Regional High School,1301 OAK AVENUE,LINWOOD,NJ
Malcolm S Mackay School,111 JEFFERSON AVENUE,TENAFLY,NJ
Malcolm X Shabazz High School,80 JOHNSON AVE,NEWARK,NJ
Manito Elementary School,111 MANITO AVE,OAKLAND,NJ
Mansfield Township Elementary School,200 MANSFIELD ROAD EAST,COLUMBUS,NJ
Mansion Avenue School,300 MANSION AVENUE,AUDUBON,NJ
Maple Shade High School,180 Frederick Ave,MAPLE SHADE,NJ
Maplewood Middle School,7 BURNETT ST,MAPLEWOOD,NJ
Marcus Newcomb Middle School,101 Fort Dix Rd,Pemberton,NJ
MARGARET C CLIFFORD SCHOOL,601 AUBURN AVENUE,SWEDESBORO,NJ
Margaret Mace Elementary School,1201 Atlantic Avenue,North Wildwood,NJ
Marie Durand Elementary School,371 W FOREST GROVE RD,VINELAND,NJ
Marie H Katzenbach Elementary/ Middle School for the Deaf,320 Sullivan Way,Trenton,NJ
Marie H Katzenbach High School,320 Sullivan Way,Trenton,NJ
Mark Newbie Elementary School,2 EAST BROWNING RD,COLLINGSWOOD,NJ
Marlton Elementary,190 TOMLINSON MILL ROAD,MARLTON,NJ
Marlton Middle,150 TOMLINSON MILL ROAD,MARLTON,NJ
Marshall Elementary School,262 GROVE RD,S ORANGE,NJ
Martin Center for the Arts,59 WILKINSON AVE,JERSEY CITY,NJ
Martin Luther King Jr. Elementary School,401-411 Brunswick Avenue,Trenton,NJ
"Martin Luther King, Jr. School",886 BERGEN AVE,JERSEY CITY,NJ
Mary A. Hubbard Elementary School,10 HUBBARD LANE,RAMSEY,NJ
Mary Bray Elementary School,225 WEST KINGS HIGHWAY,MOUNT EPHRAIM,NJ
Mary E. Roberts Elementary School,290 CRESCENT AVENUE,MOORESTOWN,NJ
Mary E. Volz Elementary School,509 WEST THIRD AVENUE,RUNNEMEDE,NJ
Mary F. Janvier School,1532 PENNSYLVANIA AVE,FRANKLINVILLE,NJ
Mary J Donohoe Community School,38 DODGE STREET,BAYONNE,NJ
"Mastery Schools of Camden, Inc.",1001 North 17th Street,Camden,NJ
Maud Abrams School,714 TOWNBANK RD,CAPE MAY,NJ
Maude M. Wilkins Elementary School,34 WEST MILL ROAD,MAPLE SHADE,NJ
Maurice Hawk Elementary School,303  305 CLARKSVILLE ROAD,West Windsor,NJ
Maurice River Township School,3593 RT 47,PORT ELIZABETH,NJ
MAYWOOD AVENUE SCHOOL,452 MAYWOOD AVE,MAYWOOD,NJ
Maywood Campus,404 MAYWOOD AVENUE,MAYWOOD,NJ
McGalliard Elementary School,1600 ARENA DRIVE,HAMILTON,NJ
McKenzie School,125 CARLTON AVENUE,EAST RUTHERFORD,NJ
McKInley,1 COLONNADE PL,NEWARK,NJ
McKinley Elementary School,3110 LIBERTY AVE,NORTH BERGEN,NJ
MCVS Adult Evening School,1085 Old Trenton Rd,Trenton,NJ
MCVS Arthur R. Sypek Center,129 BULL RUN ROAD,PENNINGTON,NJ
MCVS Assunpink Center,1085 OLD TRENTON ROAD,TRENTON,NJ
MCVS Health Careers Center,1070 Klockner Rd,Hamilton,NJ
Meadowbrook,50 PIERMONT AVE,HILLSDALE,NJ
Medford Memorial Middle School,55 MILL STREET,MEDFORD,NJ
Melvin H. Kreps Middle School,5 KENT LANE,EAST WINDSOR,NJ
MEMORIAL,764 GRANT AVE,MAYWOOD,NJ
Memorial Campus,319 New York Ave.,Lyndhurst,NJ
Memorial Elementary School,130 LIBERTY ST,LITTLE FERRY,NJ
Memorial Elementary School,53 Grand Avenue West,Montvale,NJ
Memorial Elementary School,EAST 203 MIDLAND AVENUE,PARAMUS,NJ
Memorial Elementary School,400 Hudson Avenue,Pitman,NJ
Memorial High School,504 EAST BROAD STREET,MILLVILLE,NJ
Memorial High School,5501 PARK AVE,WEST NEW YORK,NJ
Memorial Middle School,375 RIVER DRIVE,ELMWOOD PARK,NJ
Memorial Middle School,12 - 00 FIRST STREET,FAIR LAWN,NJ
Memorial Middle School,500 Ridge Road,Cedar Grove,NJ
Memorial School,1 Haines Avenue,Emerson,NJ
Memorial School,DYER AVENUE,SOUTH HACKENSACK,NJ
Memorial Senior High School,375 RIVER DR,ELMWOOD PARK,NJ
Mercer County Technical School Culinary Arts Academy,129 Bull Run Road,Pennington,NJ
Mercer County Technical School Health Sciences Academy,1085 Old Trenton Road,Trenton,NJ
Mercer County Technical School STEM Academy,229 Bull Run Road,Pennington,NJ
Mercer Elementary School,1020 Old Trenton Road,Hamilton,NJ
Mercer High School,1030 Old Trenton Road,Hamilton,NJ
Mercerville Elementary School,60 REGINA AVENUE,HAMILTON,NJ
Merchantville Elementary School,130 S CENTRE ST,MERCHANTVILLE,NJ
Merritt Memorial,1 DOGWOOD LANE,CRESSKILL,NJ
Middle School # 4,107 BRIGHT STREET,JERSEY CITY,NJ
Middle Township Elementary #1,215 ELDREDGE ROAD,CAPE MAY COURT HOUSE,NJ
Middle Township Elementary #2,101 WEST PACIFIC AVE,CAPE MAY COURT HOUSE,NJ
Middle Township Elementary #4,300 E PACIFIC AVE,CAPE MAY COURT HOUSE,NJ
Middle Township High School,300 EAST ATLANTIC AVENUE,CAPE MAY COURT HOUSE,NJ
Midland Elementary School,241 WEST MIDLAND AVENUE,PARAMUS,NJ
Midland Park Jr./Sr. High School,250 PROSPECT ST,MIDLAND PARK,NJ
Midland School #1,300 ROCHELLE AVE,ROCHELLE PARK,NJ
Midtown Community School #8,550 AVENUE A,BAYONNE,NJ
Mildred Barry Garvin Elementary,1 GROVE PLACE,EAST ORANGE,NJ
Mildred Magowan Elementary School,405 CHERRIX AVENUE,EDGEWATER PARK,NJ
Milford School,7 HILLSIDE AVENUE,MILFORD,NJ
Millbridge Elementary School,282 CONROW ROAD,DELRAN,NJ
Millburn High School,462 MILLBURN AVE,MILLBURN,NJ
Millburn Middle School,25 OLD SHORT HILLS RD,MILLBURN,NJ
Millstone River School,75 GROVERS MILL ROAD,PLAINSBORO,NJ
Millville Senior High School,200 WADE BLVD,MILLVILLE,NJ
Milton H. Allen Elementary School,24 ALLEN AVENUE,MEDFORD,NJ
Monmouth Court Campus,25 Monmouth Court,L,NJ
Monongahela Middle School,890 BANKBRIDGE RD,SEWELL,NJ
Montclair High School,100 CHESTNUT ST,MONTCLAIR,NJ
Montrose Early Childhood Center,358 Clark Street,South Orange,NJ
Moonachie Campus,Robert L. Craig School,Moonachie,NJ
Moorestown High School,350 BRIDGEBORO ROAD,MOORESTOWN,NJ
Moorestown Upper Elementary School,325 BORTON LANDING ROAD,MOORESTOWN,NJ
Morgan Elementary School,38 STAMFORD ROAD,HAMILTON,NJ
Morris Goodwin School,839 YE GREATE STREET,GREENWICH,NJ
Mott Elementary School,45 STOKELY AVENUE,TRENTON,NJ
Mount Pleasant Elementary School,100 CARMEL RD,MILLVILLE,NJ
Mount Pleasant Elementary School,11 BROADLAWN DR,LIVINGSTON,NJ
Mount Pleasant Elementary School,9 MANGER ROAD,WEST ORANGE,NJ
Mount Pleasant Middle School,11 BROADLAWN DR,LIVINGSTON,NJ
Mt Vernon Place School,142 MOUNT VERNON PL,NEWARK,NJ
Mt. Vernon Avenue Elementary School,54 MT   VERNON AVENUE,IRVINGTON,NJ
Mullica Township Middle School,500 ELWOOD ROAD,ELWOOD,NJ
Mullica Township Primary School,500 ELWOOD ROAD,ELWOOD,NJ
MULTIPLY HANDICAPED,540 Farview Avenue,Paramus,NJ
Myron L. Powell Elementary School,225 MAIN STREET,CEDARVILLE,NJ
N. A. Bleshman Regional Day School,333 EAST RIDGEWOOD AVENUE,PARAMUS,NJ
Nathaniel Hawthorne Elementary School,201 FYCKE LANE,TEANECK,NJ
National Park School,516 LAKEHURST AVE,NATIONAL PARK,NJ
Neeta School,44 Neeta Trail,Medford Lakes,NJ
Nehaunsey Middle School,415 SWEDESBORO ROAD,GIBBSTOWN,NJ
Nellie K. Parker,261 MAPLE HILL DR,HACKENSACK,NJ
New Albany Elementary School,2701 NEW ALBANY ROAD,CINNAMINSON,NJ
New Hanover Township School,122 FORT DIX STREET,WRIGHTSTOWN,NJ
New Milford High School,330 River Road,NEW MILFORD,NJ
New Oliver Street School,104 Oliver Street,Newark,NJ
New York Avenue Elementary School,121 WEST NEW YORK AVENUE,SOMERS POINT,NJ
New York Avenue School,411 N New York Avenue,Atlantic City,NJ
Newark innovation Academy,190 Muhammad Ali Avenue,NEWARK,NJ
Newark Leadership Academy,301 West Kinney Street,Newark,NJ
Nicholas Oresko Community School,33 East 24th Street,BAYONNE,NJ
Nicolaus Copernicus School,3385 KENNEDY BLVD,JERSEY CITY,NJ
Nishuane Elementary School,32 CEDAR AVE,MONTCLAIR,NJ
NJ Regional Day School  - Newark,334 LYONS AVE,NEWARK,NJ
Nokomis School,135 Mudjekeewis Trail,Medford Lakes,NJ
North Arlington High School,222 Ridge Road,North Arlington,NJ
North Arlington Middle School,45 Beech Street,North Arlington,NJ
North Bergen High School,7417 KENNEDY BLVD,N BERGEN,NJ
North Cliff School,700 FLOYD ST,ENGLEWOOD CLIFFS,NJ
North End Elementary School,122 Stevens Avenue,Cedar Grove,NJ
North Hanover Township Upper Elementary School,351 MONMOUTH ROAD,WRIGHTSTOWN,NJ
North Hunterdon High School,1445 State Route 31,Annandale,NJ
North Main Street Elementary School,215 NORTH MAIN STREET,PLEASANTVILLE,NJ
Northeast Elementary School,603 GROVE ST,UPPER MONTCLAIR,NJ
Northern Burlington County Regional High School,160 MANSFIELD ROAD EAST,COLUMBUS,NJ
Northern Burlington County Regional Middle School,180 MANSFIELD ROAD  EAST,COLUMBUS,NJ
Northern Highlands Regional High School,298 HILLSIDE AVE,ALLENDALE,NJ
Northern Valley Central,200 Summit Street,Norwood,NJ
Northern Valley Regional High School at Demarest,150 Knickerbocker Road,Demarest,NJ
Northern Valley Regional High School at Old Tappan,140 Central Avenue,Old Tappan,NJ
Northfield Community Elementary School,2000 NEW ROAD,NORTHFIELD,NJ
Northfield Community Middle School,2000 NEW ROAD,NORTHFIELD,NJ
Northvale Public School,441 TAPPAN ROAD,NORTHVALE,NJ
Norwood Public School,177 SUMMIT ST,NORWOOD,NJ
Number Three School,403 CLIFF STREET,FAIRVIEW,NJ
Nutley High School,300 FRANKLIN AVE,NUTLEY,NJ
Oak Knoll Elementary School,23 BODINE AVENUE,WILLIAMSTOWN,NJ
Oak Valley Elementary School,525 COLLEGE BLVD,WENONAH,NJ
Oak View Elementary School,150 Garrabrant Avenue,Bloomfield,NJ
Oakcrest High School,1824 DR  DENNIS FOREMAN DRIVE,MAYS LANDING,NJ
Oaklyn Public School,136 KENDALL BLVD,OAKLYN,NJ
Oakview Elementary School,350 DUBOIS AVE,WEST DEPTFORD,NJ
Oakwood Avenue Elementary School,135 OAKWOOD AVE,ORANGE,NJ
Ocean Academy,148 CREST HAVEN ROAD,CAPE MAY COURT HOUSE,NJ
Ocean City High School,501 ATLANTIC AVENUE,OCEAN CITY,NJ
Ocean City Intermediate School,1901 BAY AVENUE,OCEAN CITY,NJ
Ocean City Primary School,550 WEST AVENUE,OCEAN CITY,NJ
Octavio V. Catto Community Family School,3100 WESTFIELD AVE,CAMDEN,NJ
Old Turnpike School,171 OLD TURNPIKE ROAD,CALIFON,NJ
Oliver Street School,86 OLIVER ST,NEWARK,NJ
"Ollie Culbreth, Jr. School",153 UNION ST,JERSEY CITY,NJ
Oradell Public School,350 PROPECT AVENUE,ORADELL,NJ
Orange Early Childhood Center,397 Park Avenue,Orange,NJ
Orange High School,400 LINCOLN AVE,ORANGE,NJ
Orange Preparatory Academy,400 CENTRAL AVE,ORANGE,NJ
Orchard Elementary School,230 DEMAREST ST,RIDGEWOOD,NJ
Orchard Valley Middle School,238 PITMAN  DOWNER RD,SEWELL,NJ
Osage School,112 Somerdale Road,VOORHEES,NJ
Overbrook Senior High School,1200 TURNERSVILLE ROAD,PINE HILL,NJ
P.J. Hill Elementary,1010 EAST STATE STREET,TRENTON,NJ
Palisades Park Jr-Sr High School,VETERANS PLAZA,PALISADES PARK,NJ
Palmyra High School,5TH & WEART BOULEVARD,PALMYRA,NJ
Paramus High School,99 EAST CENTURY ROAD,PARAMUS,NJ
Park  Avenue Elementary School,231 PARK AVE,ORANGE,NJ
Park Elementary School,120 MANCHESTER PLACE,Newark,NJ
Park Ridge High School,2 PARK AVE,PARK RIDGE,NJ
Parker Elementary,820 S Warren St,TRENTON,NJ
Parkivew Elementary School,123 PARKVIEW RD,STRATFORD,NJ
Parkview Elementary School,101 BIRCH ST,WESTVILLE,NJ
Parkway Elementary School,145 E. RIDGEWOOD AVENUE,PARAMUS,NJ
Parkway Elementary School,142 RAMBLEWOOD PARKWAY,MOUNT LAUREL,NJ
Parkway Elementary School,446 PARKWAY AVENUE,EWING,NJ
Pascack Hills High School,225 West Grand Avenue,Montvale,NJ
Pascack Valley High School,200 Piermont Avenue,Hillsdale,NJ
"Patricia M. Noonan School, PS #26",164 Laidlaw Ave,Jersey City,NJ
Patrick F. Healy Middle School,116 HAMILTON ST,EAST ORANGE,NJ
Patrick M Villano School,175 Linwood Avenue,Emerson,NJ
Patrick McGaheran,63  ALLERTON ROAD,LEBANON,NJ
Pauline J. Petway Elementary School,1115 SO  LINCOLN AVE,VINELAND,NJ
Paulsboro High School,670 N DELAWARE ST,PAULSBORO,NJ
PAULSBORO JUNIOR HIGH SCHOOL,670 N Delaware Street,Paulsboro,NJ
Pemberton Early Childhood Education Center,100 Arney's Mt. Road,Pemberton,NJ
Pemberton Township High School,148 ARNEYS MOUNT ROAD,PEMBERTON,NJ
Pennsauken High School,800 HYLTON ROAD,PENNSAUKEN,NJ
Pennsauken Intermediate School,8125 PARK AVENUE,PENNSAUKEN,NJ
Pennsylvania Ave School,201 N. Pennsylvania Avenue,Atlantic City,NJ
Perry L. Drew Elementary School,70 TWIN RIVERS DRIVE NORTH,EAST WINDSOR,NJ
Peter Muschal Elementary,323 WARD AVE,BORDENTOWN,NJ
Philip G. Vroom Community School,18 WEST 26TH ST,BAYONNE,NJ
Pierrepont School,70 E PIERREPONT AVE,RUTHERFORD,NJ
Pine Acres Early Childhood Center,720 PURDUE AVE,WENONAH,NJ
Pine Hill Middle School,1100 TURNERVILLE ROAD,PINE HILL,NJ
Pitman High School,225 Linden Avenue,Pitman,NJ
Pitman Middle School,138 East Holly Avenue,Pitman,NJ
Pleasant Valley School,401 CEDAR RD,MULLICA HILL,NJ
Pleasantville High School,701 MILL ROAD,PLEASANTVILLE,NJ
Pleasantville Middle School,801 MILL ROAD,PLEASANTVILLE,NJ
Pomona Preschool,400 S  GENOA AVENUE,EGG HARBOR,NJ
Pond Road Middle School,150 POND ROAD,ROBBINSVILLE,NJ
Port Norris Middle School,6812 BROWN STREET,PORT NORRIS,NJ
Port Republic Elementary School,137 POMONA AVENUE,PORT REPUBLIC,NJ
President Barack Obama Elementary School,1830 KENNEDY BLVD,JERSEY CITY,NJ
Princeton High School,151 MOORE STREET,PRINCETON,NJ
Programs at Park Academy,609 Westwood Avenue,River Vale,NJ
Public School Number Five,5401 HUDSON AVE,WEST NEW YORK,NJ
Public School Number One,6129 MADISON ST,WEST NEW YORK,NJ
Public School Number Two,5200 BROADWAY,WEST NEW YORK,NJ
Quarter Mile Lane School,300 QUARTER MILE LANE,BRIDGETON,NJ
Quitman Community School,21 QUITMAN ST,NEWARK,NJ
R. M. Bacon Elementary School,501 SOUTH THIRD STREET,MILLVILLE,NJ
Radburn Elementary School,18-00 RADBURN RD,FAIR LAWN,NJ
Radcliffe School,379 BLOOMFIELD AVE,NUTLEY,NJ
Radix Elementary,363 RADIX RD,WILLIAMSTOWN,NJ
Rafael Cordero y Molina,158 ERIE ST,JERSEY CITY,NJ
Rafael Hernandez School,345 BROADWAY,NEWARK,NJ
Ralph J. Steinhauer Elementary School,25 NORTH FELLOWSHIP ROAD,MAPLE SHADE,NJ
Ralph S Maugham School,111 MAGNOLIA AVENUE,TENAFLY,NJ
Ramapo High School,331 GEORGE STREET,FRANKLIN LAKES,NJ
Ramapo Ridge,150 RIDGE ROAD,MAHWAH,NJ
Ramsey High School,256 E  MAIN STREET,RAMSEY,NJ
Rancocas Valley Regional High School,520 JACKSONVILLE ROAD,MOUNT HOLLY,NJ
Raymond W. Kershaw School,125 SOUTH BLACK HORSE PIKE,MOUNT EPHRAIM,NJ
Reading-Fleming Intermediate School,50 COURT STREET,FLEMINGTON,NJ
Readington Middle School,48 READINGTON RD,WHITEHOUSE STATION,NJ
Red Bank Elementary School,192 PHILADELPHIA AVE,WEST DEPTFORD,NJ
Redwood Elementary School,75 REDWOOD AVE,W ORANGE,NJ
Reeds Road Elementary School,103 SOUTH REEDS ROAD,GALLOWAY,NJ
Regional Day School,425 JOHNSTON AVENUE,JERSEY CITY,NJ
Regional Day School,1070 Old Trenton Road,Hamilton,NJ
Renaissance Middle School at the Rand Building,176 North Fullerton Avenue,MONTCLAIR,NJ
Rev. Dr. Ercel F. Webb School,264 VAN HORNE STREET,JERSEY CITY,NJ
Richard C Crockett Middle School,2631 KUSER ROAD,HAMILTON,NJ
RICHARD E BYRD,640 DOREMUS AVE,GLEN ROCK,NJ
Richard L Rice School,50 CROWN ROYAL PARKWAY,MARLTON,NJ
Richard M. Teitelman Middle School,687 RT 9,CAPE MAY,NJ
Richard Stockton Elementary School,200 Wexford Dr.,CHERRY HILL,NJ
Richmond Avenue School,4115 Ventnor Avenue,Atlantic City,NJ
Ridge Elementary School,325 WEST RIDGEWOOD AVE,RIDGEWOOD,NJ
Ridge Ranch Elementary School,345 LOCKWOOD DRIVE,PARAMUS,NJ
Ridge Street School,735 RIDGE ST,NEWARK,NJ
Ridgefield Memorial High School,555 WALNUT ST,RIDGEFIELD,NJ
Ridgefield Park Jr Sr High School,1 OZZIE NELSON DRIVE,RIDGEFIELD PARK,NJ
Ridgewood Avenue School,235 RIDGEWOOD AVE,GLEN RIDGE,NJ
Ridgewood High School,627 EAST RIDGEWOOD AVE,RIDGEWOOD,NJ
Rieck Avenue Elementary School,339 RIECK AVENUE,MILLVILLE,NJ
Riker Hill Elementary School,31 BLACKSTONE DR,LIVINGSTON,NJ
Riletta Twyne Cream Family School,1875 Mulford Street,CAMDEN,NJ
River Dell Middle School,230 WOODLAND AVENUE,River Edge,NJ
River Dell Regional High School,55 PYLE STREET,ORADELL,NJ
Riverside Elementary School,112 E WASHINGTON STREET,RIVERSIDE,NJ
Riverside High School,112 E WASHINGTON STREET,RIVERSIDE,NJ
Riverside Middle School,112 E WASHINGTON STREET,RIVERSIDE,NJ
Riverside School,58 RIVERSIDE DRIVE,PRINCETON,NJ
Riverton School,600 FIFTH STREET,RIVERTON,NJ
Robbins Elementary School,283 TYLER STREET,TRENTON,NJ
Robbinsville High School,155 ROBBINSVILLE EDINBURG RD,ROBBINSVILLE,NJ
Roberge Elementary School,617 WESTWOOD AVE,RIVER VALE,NJ
Robert B Jaggard School,2 WESTCOTT ROAD,MARLTON,NJ
Robert D Reynolds Primary School,391 W  SADDLE RIVER RD,UPPER SADDLE RIVER,NJ
Robert Fulton Elementary School,7407 HUDSON AVE,NORTH BERGEN,NJ
Robert Hunter Elementary School,8 DAYTON ROAD,FLEMINGTON,NJ
Robert L. Craig School,20 WEST PARK STREET,MOONACHIE,NJ
Robert Menendez Elementary School,600 55TH ST,WEST NEW YORK,NJ
Robert Waters Elementary School,2800 SUMMIT AVE,UNION CITY,NJ
Roberto Clemente Elementary School,257 SUMMER AVE,NEWARK,NJ
Robinson Elementary School,495 GROPP AVENUE,HAMILTON,NJ
Roebling Elementary School,1330 HORNBERGER AVE,ROEBLING,NJ
Roland Rogers Elementary School,105 S  REEDS ROAD,GALLOWAY,NJ
Roosevelt  Elementary School,508 TEANECK ROAD,RIDGEFIELD PARK,NJ
Roosevelt Elementary School,50 Webster Street,North Arlington,NJ
Roosevelt Elementary School,733 KEARNY AVE,KEARNY,NJ
Roosevelt Middle School,36 GILBERT PL,W ORANGE,NJ
Roosevelt School,435 PASSAIC AVENUE,LODI,NJ
Roosevelt School,530 STUYVESANT AVE,LYNDHURST,NJ
Roosevelt School,711 SUMMIT AVE,RIVER EDGE,NJ
Roosevelt School #7,225 LINCOLN PL,GARFIELD,NJ
Rosa International Middle School,485 Browning Lane,CHERRY HILL,NJ
Rosa Parks /Central Community School,369 MAIN STREET,ORANGE,NJ
Round Valley,128  COKESBURY RD,LEBANON,NJ
Roy W. Brown Middle School,130 S WASHINGTON AVE,BERGENFIELD,NJ
Rutherford High School,56 ELLIOTT PL,RUTHERFORD,NJ
SADDLE BROOK MIDDLE/HIGH SCHOOL,355 MAYHILL STREET,SADDLE BROOK,NJ
SALOME H. LONG MEMORIAL SCHOOL,260 FLORAL LANE,SADDLE BROOK,NJ
Salvatore R. Calabro,524 Park Avenue,HOBOKEN,NJ
Samuel M Ridgway Middle School,300 DELANCO RD,EDGEWATER PARK,NJ
Samuel Mickle School,559 KINGS HIGHWAY,MICKLETON,NJ
Samuel S. Yellin Elementary School,111 WARWICK ROAD,STRATFORD,NJ
Samuel Smith Elementary School,250 FARNER AVENUE,BURLINGTON,NJ
Samuel T. Busansky School,16 SCRAPETOWN ROAD,PEMBERTON,NJ
Sandman Consolidated School,838 SEASHORE RD,CAPE MAY,NJ
Sara M. Gilmore Academy,1700 Kerrigan Avenue,Union City,NJ
Sayen Elementary School,3333 NOTTINGHAM WAY,HAMILTON,NJ
School #3,397 PALISADE AVENUE,CLIFFSIDE PARK,NJ
School #4,279 COLUMBIA AVENUE,CLIFFSIDE PARK,NJ
School #5,214 DAY AVE,CLIFFSIDE PARK,NJ
School #6/Middle School,440 OAKDENE AVE,CLIFFSIDE PARK,NJ
School No. 1,250 HOYM STREET,FORT LEE,NJ
School No. 2,2047 JONES ROAD,FORT LEE,NJ
School No. 3,2405 SECOND STREET,FORT LEE,NJ
School No. 4,1193 ANDERSON AVE,FORT LEE,NJ
Schuyler Elementary School,644 FOREST ST,KEARNY,NJ
Science Park High School,260 NORFOLK STREET,NEWARK,NJ
Seaview Elementary School,2013 WABASH AVE,LINWOOD,NJ
Secaucus High School,11 MILL RIDGE ROAD,SECAUCUS,NJ
Secaucus Middle School,11 MILL RIDGE ROAD,SECAUCUS,NJ
Selzer Elementary\Middle School,435 PROSPECT AVE,DUMONT,NJ
Seneca High School,110 CARRANZA ROAD,TABERNACLE,NJ
Seth Boyden Elementary Demonstration School,274 BOYDEN AVE,MAPLEWOOD,NJ
Seventh Avenue,316 Seventh Avenue,HADDON HEIGHTS,NJ
Sewell Elementary School,40 MCANALLY DR,SEWELL,NJ
Shady Lane Elementary School,130 PEACH STREET,WESTVILLE,NJ
Shaler Academy,455 SHALER BOULEVARD,RIDGEFIELD,NJ
Sharon School,234 SHARON ROAD,ROBBINSVILLE,NJ
Shawnee High School,600 TABERNACLE ROAD,MEDFORD,NJ
Sicomac Elementary School,356 SICOMAC AVE,WYCKOFF,NJ
Signal Hill School,33 Signal Hill Drive,VOORHEES,NJ
Silver Run Elementary School,301 SILVER RUN ROAD,MILLVILLE,NJ
Sixteenth Avenue School,73 SIXTEENTH AVENUE,ELMWOOD PARK,NJ
Slackwood Elementary School,2060 PRINCETON PIKE,LAWRENCEVILLE,NJ
Slocum Skewes School,650 PROSPECT AVE,RIDGEFIELD,NJ
Smithville Elementary School,37 S  OLD PORT REPUBLIC ROAD,GALLOWAY,NJ
Sojourner Truth Middle School,116 HAMILTON ST,EAST ORANGE,NJ
Solve D'Ippolito Elementary School,1578 NORTH VALLEY AVE,VINELAND,NJ
Somerdale Park School,301 GRACE STREET,SOMERDALE,NJ
Somerville Elementary School,45 SOUTH PLEASANT AVE,RIDGEWOOD,NJ
South End Elementary School,116 Harper Terrace,Cedar Grove,NJ
SOUTH HARRISON TOWNSHIP ELEMENTARY SCHOOL,904 MULLICA HILL RD,HARRISONVILLE,NJ
South Hunterdon Regional High School,301 Mt Airy Harbourton Rd,Lambertville,NJ
South Main Street Elementary School,701 SOUTH MAIN STREET,PLEASANTVILLE,NJ
South Mountain Annex,112 Glenview Road,South Orange,NJ
South Mountain Elementary School,444  WEST SOUTH ORANGE AVE,S ORANGE,NJ
South Mountain School,2 SOUTHERN SLOPE DRIVE,MILLBURN,NJ
South Orange Middle School,70 North Ridgewood Road,S ORANGE,NJ
South Seventeenth Street School,619 S SEVENTEENTH ST,NEWARK,NJ
South Street Elementary School,44-48 Hermon Street,NEWARK,NJ
South Valley Elementary School,210 S  STANWICK RD,MOORESTOWN,NJ
Southampton Township School #1,26 PLEASANT STREET,SOUTHAMPTON,NJ
Southampton Township School #2,100 MISS MABEL DRIVE,SOUTHAMPTON,NJ
Southampton Township School #3,100 WARRIOR WAY,SOUTHAMPTON,NJ
Sovereign Avenue School,3205 Arctic Avenue,Atlantic City,NJ
Speedway Avenue School,701 SOUTH ORANGE AVENUE,NEWARK,NJ
Spring Garden School,59 S SPRING GARDEN AVE,NUTLEY,NJ
Springfield Township School,2146 JACKSONVILLE ROAD,JOBSTOWN,NJ
Springville Elementary School,520 HARTFORD ROAD,MT  LAUREL,NJ
Spruce Run,27 BELVIDERE AVENUE,CLINTON,NJ
St. Cloud Elementary School,71 SHERIDAN AVE,W ORANGE,NJ
Sterling High School,501 South Warwick Road,Somerdale,NJ
Stone Harbor Elementary School,275 93RD ST,STONE HARBOR,NJ
Stony Brook Elementary School,20 STEPHENSON ROAD,PENNINGTON,NJ
Stony Lane Elementary School,W 110 RIDGEWOOD AVENUE,PARAMUS,NJ
Stow Creek Township School,11 GUM TREE CORNER ROAD,BRIDGETON,NJ
Stoy Elementary School,206 BRIARWOOD AVENUE,HADDONFIELD,NJ
Strawbridge Elementary School,307 STRAWBRIDGE AVENUE,WESTMONT,NJ
Sunnybrae Elementary School,166 ELTON AVENUE,HAMILTON,NJ
Sussex Avenue School,307 SUSSEX AVE,NEWARK,NJ
T. Baldwin Demarest Elementary School,1 SCHOOL ST,OLD TAPPAN,NJ
T. E. Harrington Middle School,514 MOUNT LAUREL ROAD,MOUNT LAUREL,NJ
Tabernacle Elementary School,141 NEW ROAD,TABERNACLE,NJ
Taunton Forge Elementary School,32 EVERGREEN TRAIL,MEDFORD,NJ
Teaneck High School,100 ELIZABETH AVE,TEANECK,NJ
Technology High School,223 BROADWAY,NEWARK,NJ
Tenafly High School,19 COLUMBUS DRIVE,TENAFLY,NJ
Tenafly Middle School,10 SUNSET LANE,TENAFLY,NJ
Tenakill Middle School,275 High Street,CLOSTER,NJ
Tewksbury Elementary School,109 FAIRMOUNT ROAD EAST,CALIFON,NJ
Texas Avenue School,2523 Arctic Avenue,Atlantic City,NJ
The Early Childhood Center @ Forest Glen,280 Davey Street,Bloomfield,NJ
Theodore Roosevelt Elementary School,4507 HUDSON AVE,UNION CITY,NJ
Theodore Roosevelt School,1 LOUISA PLACE,WEEHAWKEN,NJ
Thirteenth Avenue School,359 THIRTEENTH AVE,NEWARK,NJ
Thomas A Edison Elementary School,507 WEST ST,UNION CITY,NJ
Thomas A. Edison Elementary School,205 MELROSE AVENUE,WESTMONT,NJ
Thomas B. Conley Elementary School,940 IRON BRIDGE RD,ASBURY,NJ
Thomas E. Bowe School,CARPENTER ST AND MANCUSO LANE,GLASSBORO,NJ
Thomas G. Connors,201 MONROE STREET,HOBOKEN,NJ
Thomas H. Dudley Family School,2250 Berwick Street,Camden,NJ
Thomas Jefferson Elementary School,95 ALTAIR DR,TURNERSVILLE,NJ
Thomas Jefferson Middle School,35 - 01 MORLOT AVENUE,FAIR LAWN,NJ
Thomas Jefferson Middle School,75 FIRST STREET,LODI,NJ
Thomas Jefferson Middle School,655 TEANECK RD,TEANECK,NJ
Thomas Jefferson School #9,62 Alpine Street,Garfield,NJ
Thomas Paine Elementary School,4001 Church Rd.,CHERRY HILL,NJ
Thomas R Grover Middle School,10 SOUTHFIELD ROAD,West Windsor,NJ
Thomas Richards Elementary,934 LINCOLN AVE,ATCO,NJ
Thomas Sharp Elementary School,400 COMLY AVE,WEST COLLINGSWOOD,NJ
Thomas W. Wallace Jr. Middle School,688 NORTH MILL ROAD,VINELAND,NJ
Three Bridges School,480 MAIN STREET,THREE BRIDGES,NJ
Thurgood Marshall Elementary School,141  181 MONTGOMERY AVENUE,IRVINGTON,NJ
Timber Creek Regional High School,501 JARVIS ROAD,ERIAL,NJ
Timberlane Middle School,51 S  TIMBERLANE DRIVE,PENNINGTON,NJ
Toll Gate Grammar School,275 SO  MAIN STREET,PENNINGTON,NJ
Town Center Elementary School at Plainsboro,700 WYNDHURST DRIVE,PLAINSBORO,NJ
Travell Elementary School,340 BOGERT AVE,RIDGEWOOD,NJ
Trenton Central High School - Main Campus,171 DIVISION STREET,TRENTON,NJ
Trenton Central High School-9th Grade Academy,500 Perry Street,Trenton,NJ
Triton Regional High School,250 SCHUBERT AVE,RUNNEMEDE,NJ
Tuscan Elementary School,25 HARVARD AVE,MAPLEWOOD,NJ
Twin Hills Elementary School,110 TWIN HILL DRIVE,WILLINGBORO,NJ
Union Avenue Middle School,427     UNION AVE,IRVINGTON,NJ
Union City Evening High School,2215 Kerrigan Avenue,Union City,NJ
Union City High School,2500 Kennedy Blvd,Union City,NJ
Union Hill Middle School,3800 HUDSON AVE,UNION CITY,NJ
Union School,359 UNION AVE,RUTHERFORD,NJ
Union Township Elementary School,149 PERRYVILLE ROAD,HAMPTON,NJ
Union Township Middle School,165 PERRYVILLE ROAD,HAMPTON,NJ
Union Valley Elementary School,1300 JARVIS ROAD,SICKLERVILLE,NJ
University Elementary School,1 UNIVERSITY PLACE,IRVINGTON,NJ
University Heights Elementary School,645 PAXSON AVENUE,HAMILTON,NJ
University High School,55 CLINTON PL,NEWARK,NJ
University Middle School,255 MYRTLE AVE,IRVINGTON,NJ
UPLIFT Academy,150 Newton St,NEWARK,NJ
Upper School,143 CHARLOTTE PL,ENGLEWOOD CLIFFS,NJ
Upper Township Elementary School,50 OLD TUCKAHOE RD,MARMORA,NJ
Upper Township Middle School,525 PERRY RD,PETERSBURG,NJ
Upper Township Primary School,130 OLD TUCKAHOE RD,MARMORA,NJ
Uptown School Complex,323 Madison Avenue,Atlantic City,NJ
Valley Middle School,71 OAK ST,OAKLAND,NJ
Valley View School,400 ROUTE 513,CALIFON,NJ
Van Sciver Elementary School,625 RHOADS AVENUE,HADDONFIELD,NJ
Venice Park School,1601 N Penrose Avenue,Atlantic City,NJ
Ventnor Elementary School,400 N  LAFAYETTE AVENUE,VENTNOR,NJ
Ventnor Middle School,VENTNOR EDUCATIONAL COMMUNITY,VENTNOR,NJ
Verona High School,151 FAIRVIEW AVE,VERONA,NJ
Veterans Memorial Family School,800 N 26th Street,CAMDEN,NJ
Veterans Memorial Middle,424 S MAIN RD,VINELAND,NJ
Veterans' Memorial Elementary School,1401 CENTRAL AVENUE,UNION CITY,NJ
Village Elementary School,601 NEW VILLAGE ROAD,West Windsor,NJ
Vineland Senior High School,2880 E CHESTNUT AVE,VINELAND,NJ
Voorhees High School,256 County Route 513,Glen Gardner,NJ
Voorhees Middle School,1000 HOLLY OAK DR,VOORHEES,NJ
W. R. James Sr. Elementary School,41 PINETREE LANE,WILLINGBORO,NJ
W.C.K. Walls Elementary School,320 Grant Avenue,Pitman,NJ
Wahlstrom Early Childhood Academy,340 PROSPECT STREET,EAST ORANGE,NJ
Waldwick High School,155 WYCKOFF AVENUE,WALDWICK,NJ
Waldwick Middle School,155 WYCKOFF AVENUE,WALDWICK,NJ
Wallace Elementary School,1100 WILLOW AVENUE,HOBOKEN,NJ
Wallington Junior Senior High School,234 MAIN AVE,WALLINGTON,NJ
Walnut Street School,411 WALNUT ST,DELANCO,NJ
Walnut Street School,60 Walnut Street,Woodbury,NJ
Walter C. Black Elementary School,371 STOCKTON STREET,HIGHTSTOWN,NJ
Walter F. Robinson Community School,95 WEST 31ST STREET,BAYONNE,NJ
WALTER HILL SCHOOL,1815 KINGS HIGHWAY,SWEDESBORO,NJ
Walter Stillman School,75 TENAFLY ROAD,TENAFLY,NJ
Wandell School,97 E ALLENDALE RD,SADDLE RIVER,NJ
Warren E. Sooy Jr. Elementary School,601 N  FOURTH STREET,HAMMONTON,NJ
Warren Point Elementary School,30-07 BROADWAY,FAIR LAWN,NJ
Washington Avenue Elementary School,225 W  WASHINGTON AVENUE,PLEASANTVILLE,NJ
Washington Community School #9,191 AVENUE B,BAYONNE,NJ
Washington Elementary School,49 S  SUMMIT STREET,BERGENFIELD,NJ
Washington Elementary School,130 LIBERTY ST,LITTLE FERRY,NJ
Washington Elementary School,175 Albert Street,North Arlington,NJ
Washington Elementary School,600 SCHOOL STREET,TOWNSHIP OF WASHINGTON,NJ
Washington Elementary School,201 CENTRAL AVE,WEST CALDWELL,NJ
Washington Elementary School,289 MAIN ST,W ORANGE,NJ
Washington Elementary School,80 BELGROVE DR,KEARNY,NJ
Washington Elementary School,331 EMORY AVENUE,TRENTON,NJ
Washington Irving School #4,12 MADONNA PLACE,GARFIELD,NJ
Washington Middle School,One North Fifth Street,HARRISON,NJ
Washington School,310 N  MAIN STREET,LODI,NJ
Washington School,709 RIDGE RD,LYNDHURST,NJ
Washington School,89 WOOD ST,RUTHERFORD,NJ
Washington School,225 Market Street,Saddle Brook,NJ
Washington School,71 Spring Street,Millburn,NJ
Washington School,155 WASHINGTON AVE,NUTLEY,NJ
Washington Township High School,519 HURFFVILLE  CROSSKEYS RD,SEWELL,NJ
Watchung Elementary School,14 GARDEN ST,MONTCLAIR,NJ
Waterford Elementary School,1106 OLD WHITE HORSE PIKE,WATERFORD,NJ
Watsessing Elementary School,71 Prospect Street,Bloomfield,NJ
Wedgwood Elementary School,236 HURFFVILLE RD,SEWELL,NJ
Weehawken High School,53 LIBERTY PLACE,WEEHAWKEN,NJ
Weequahic High School,279 CHANCELLOR AVE,NEWARK,NJ
Wenonah Elementary School,200 N CLINTON AVE,WENONAH,NJ
Wesley D Tisdale Elementary School,200 ISLAND AVENUE,RAMSEY,NJ
West Amwell Township School,1417 Rt 179,Lambertville,NJ
West Avenue School,51 NORTH WEST AVENUE,BRIDGETON,NJ
West Brook Middle School,560 ROOSEVELT BOULEVARD,PARAMUS,NJ
West Cape May Elementary School,301 Moore Street,West Cape May,NJ
West Deptford High School,1600 OLD CROWN POINT RD,WEST DEPTFORD,NJ
West Deptford Middle School,675 GROVE RD,WEST DEPTFORD,NJ
West End Memorial Elementary School,215 Queen Street,Woodbury,NJ
West Essex High School,65 WEST GREENBROOK RD,NORTH CALDWELL,NJ
West Essex Middle School,65 WEST GREENBROOK RD,NORTH CALDWELL,NJ
West New York Middle School,201 57TH ST,WEST NEW YORK,NJ
West Orange High School,51 CONFORTI AVE,WEST ORANGE,NJ
West Ridge Elementary School,18 South  First Street,PARK RIDGE,NJ
West Side High School,403 South Orange Avenue,Newark,NJ
West Windsor-Plainsboro High School North,90 GROVERS MILL ROAD,PLAINSBORO,NJ
West Windsor-Plainsboro High School South,346 CLARKSVILLE ROAD,West Windsor,NJ
Westampton Campus,20 PIONEER BLVD,WESTAMPTON,NJ
Westampton Township Middle School,700 RANCOCAS ROAD,WESTAMPTON,NJ
Westmoreland Elementary School,16-50 Parmelee Ave.,FAIR LAWN,NJ
Westwood Junior/Senior High School,701 RIDGEWOOD ROAD,TOWNSHIP OF WASHINGTON,NJ
Westwood Regional Middle School,23 THIRD AVENUE,WESTWOOD,NJ
Weymouth Township Elementary School,1202 ELEVENTH AVENUE,DOROTHY,NJ
Whitehall Elementary School,161 WHITEHALL RD,WILLIAMSTOWN,NJ
Whitehouse School,50 WHITEHOUSE AVE,WHITEHOUSE STATION,NJ
Whitman Elementary School,827 WHITMAN SCHOOL DR,TURNERSVILLE,NJ
Whitney E. Houston Academy,215 DODD ST,EAST ORANGE,NJ
"Whitney M. Young, Jr. School",135 STEGMAN ST,JERSEY CITY,NJ
Wilbur Watts Intermediate School,550 HIGH STREET,BURLINGTON,NJ
Wildwood High School,4300 PACIFIC AVE,WILDWOOD,NJ
Wildwood Middle School,4300 PACIFIC AVE,WILDWOOD,NJ
Willard Elementary School,601 MORNINGSIDE RD,RIDGEWOOD,NJ
William Allen Middle School,801 N  STANWICK ROAD,MOORESTOWN,NJ
William Cullen Bryant School,1 TRYON AVENUE,TEANECK,NJ
William Davies Middle School,1876 DR  DENNIS FOREMAN DRIVE,MAYS LANDING,NJ
William G. Rohrer Middle School,101 MACARTHUR BOULEVARD,WESTMONT,NJ
William H. Ross III School,101 N  HAVERFORD AVENUE,MARGATE,NJ
William L Antheil Elementary School,339 EWINGVILLE ROAD,EWING,NJ
William L Dickinson High School,2 PALISADE AVE,JERSEY CITY,NJ
William P Tatem Elementary School,265 LINCOLN AVENUE,COLLINGSWOOD,NJ
Williamstown Middle School,561 CLAYTON RD,WILLIAMSTOWN,NJ
Willingboro High School,20 JFK WAY,WILLINGBORO,NJ
Willingboro Memorial Middle Schcool,451 Van Sciver Parkway,WILLINGBORO,NJ
Willliamstown High School,700 N TUCKAHOE RD,WILLIAMSTOWN,NJ
Wilson Avenue School,19 WILSON AVE,NEWARK,NJ
Wilson Elementary School,71 ORTON RD,WEST CALDWELL,NJ
Wilson Elementary School,175 GIRARD AVENUE,TRENTON,NJ
Wilson School,80 UNION STREET,LODI,NJ
Winslow Township Elementary School Five,130 OAK LEAF ROAD,BERLIN,NJ
Winslow Township Elementary School Four,541 KALI ROAD,SICKLERVILLE,NJ
Winslow Township Elementary School One,413 INSKIP ROAD,BLUE ANCHOR,NJ
Winslow Township Elementary School Six,617 SICKLER AVENUE,SICKLERVILLE,NJ
Winslow Township Elementary School Three,131 SICKLERVILLE ROAD,SICKLERVILLE,NJ
Winslow Township Elementary School Two,125 FIRST AVENUE,SICKLERVILLE,NJ
Winslow Township High School,10 COOPER FOLLY ROAD,ATCO,NJ
Winslow Township Middle School,30 COOPER FOLLY ROAD,ATCO,NJ
Wood-Ridge Intermediate School,151 FIRST STREET,WOOD-RIDGE,NJ
Wood-Ridge Jr/Sr High School,258 HACKENSACK ST,WOOD  RIDGE,NJ
Woodbine Elementary School,801 WEBSTER STREET,WOODBINE,NJ
Woodbury Heights Elementary,100 ACADEMY AVE,WOODBURY HTS,NJ
Woodbury Jr-Sr High School,25 N. Broad Street,Woodbury,NJ
Woodcliff Middle School,134 WOODCLIFF AVE,WOODCLIFF LAKE,NJ
Woodcrest Elementary School,400 Cranford Dr.,CHERRY HILL,NJ
Woodglen School,70 BUNNVALE ROAD,CALIFON,NJ
Woodland Middle School,1 SCHOOL LANE,BARRINGTON,NJ
Woodlynne Boro Public School,131 ELM AVENUE,WOODLYNNE,NJ
Woodrow Wilson Community School,101 WEST 56TH STREET,BAYONNE,NJ
Woodrow Wilson High School,3100 Federal Street,CAMDEN,NJ
WOODROW WILSON SCHOOL #5,205 OUTWATER LANE,GARFIELD,NJ
Woodruff Middle School,1385 Highway 77,Seabrook,NJ
Woodside Avenue School,305 Woodside Avenue,Franklin Lakes,NJ
Woodside Elementary School,801 RIVERVALE RD,RIVER VALE,NJ
Wyoming School,55 MYRTLE AVE,MILLBURN,NJ
Yantacaw School,20 YANTACAW PLACE,NUTLEY,NJ
Yardville Elementary School,450 YARDVILLE  ALLENTOWN RD,HAMILTON,NJ
Yardville Heights Elementary School,3880 SOUTH BROAD STREET,HAMILTON,NJ
Yorkship Elementary School,1251 Collings Road,CAMDEN,NJ
Zane North Elementary School,801 STOKES AVENUE,COLLINGSWOOD,NJ